CnBio_Org_Name,Number and Street,CnAdrPrf_Addrline2,CnAdrPrf_City,CnAdrPrf_State,Postcode,Block-Lot,Primary,Secondary,Borough,Latitude,Longitude,Community Board,Council District,Census Tract,BIN,BBL,NTA
Starbucks Coffee,3 New York Plaza,,New York,NY,10004,Aug-32,Casual Eating & Takeout,F-Coffeehouse,,,,,,,,,
New York Health & Racquet Club,39 Whitehall Street,,New York,NY,10004,Aug-32,Personal and Professional Services,P-Athletic Clubs/Fitness,MANHATTAN,40.703037,-74.012969,1,1,9,1087700,1000087501,Battery Park City-Lower Manhattan                                          
A.J. Kelly's,6 Stone Street,,New York,NY,10004,Oct-32,Full Service Dining,F-Irish Pub,MANHATTAN,40.704028,-74.012692,1,1,9,1000028,1000100032,Battery Park City-Lower Manhattan                                          
Fraunces Tavern® Restaurant,54 Pearl Street,,New York,NY,10004,Jul-35,Full Service Dining,F-American,MANHATTAN,40.703496,-74.011375,1,1,9,1078965,1000070035,Battery Park City-Lower Manhattan                                          
Bombay's,60 Pearl Street,,New York,NY,10004,Jul-37,Casual Eating & Takeout,F-Indian,MANHATTAN,40.703553,-74.011152,1,1,9,1000014,1000070038,Battery Park City-Lower Manhattan                                          
Pearl Bodywork,60 Pearl Street,Floor 2,New York,NY,10004,Jul-38,Personal and Professional Services,P-Spa,MANHATTAN,40.703553,-74.011152,1,1,9,1000014,1000070038,Battery Park City-Lower Manhattan                                          
McDonald's,6 Water Street,,New York,NY,10004,Aug-51,Casual Eating & Takeout,F-Fast Food,MANHATTAN,40.702744,-74.012201,1,1,9,1000017,1000080051,Battery Park City-Lower Manhattan                                          
Water Street Gourmet Deli & Pizza,12 Water Street,,New York,NY,10004,Aug-51,Casual Eating & Takeout,F-Deli,MANHATTAN,40.702834,-74.011963,1,1,9,1078969,1000080051,Battery Park City-Lower Manhattan                                          
Alice's Fashion,1 New York Plaza,,New York,NY,10004,1-Apr,Shopping,S-Apparel: Women's,,,,,,,,,
Mr. Soup,1 New York Plaza,,New York,NY,10004,1-Apr,Casual Eating & Takeout,F-Soup,,,,,,,,,
Vivo Food,1 New York Plaza,,New York,NY,10004,1-Apr,Casual Eating & Takeout,F-Health,,,,,,,,,
Gateway News,1 New York Plaza,,New York,NY,10004,1-Apr,Personal and Professional Services,P-Newsstands,,,,,,,,,
New World Coffee,1 New York Plaza,,New York,NY,10004,1-Apr,Casual Eating & Takeout,F-Coffeehouse,,,,,,,,,
New York Plaza Cleaners & Tailors/Shoe Repair,1 New York Plaza,Lobby,New York,NY,10004,1-Apr,Personal and Professional Services,P-Dry Cleaning,,,,,,,,,
Salvatore's  Barber Shop and Hair Salon,1 New York Plaza,,New York,NY,10004,1-Apr,Personal and Professional Services,P-Hair Salon & Barber Shop,,,,,,,,,
"Estee Lauder Companies Inc., The Company Store",1 New York Plaza,,New York,NY,10004,1-Apr,Shopping,S-Beauty & Fragrances,,,,,,,,,
Subway,1 New York Plaza,Concourse,New York,NY,10004,1-Apr,Casual Eating & Takeout,F-Fast Food,,,,,,,,,
Cafe Groppi,32 Water Street,,New York,NY,10004,26-Jul,Casual Eating & Takeout,F-American,MANHATTAN,40.70315,-74.010827,1,1,9,1087449,1000077502,Battery Park City-Lower Manhattan                                          
Pranzo,34 Water Street,Street Level,New York,NY,10004,26-Jul,Casual Eating & Takeout,F-Pizza,MANHATTAN,40.703177,-74.010726,1,1,9,1077806,1000077501,Battery Park City-Lower Manhattan                                          
Fika Espresso Bar,66 Pearl Street,,New York,NY,10004,26-Jul,Casual Eating & Takeout,F-Coffeehouse,MANHATTAN,40.703611,-74.010932,1,1,9,1077806,1000077501,Battery Park City-Lower Manhattan                                          
Wall Street Burger Shoppe,30 Water Street,,New York,NY,10004,27-Jul,Full Service Dining,F-Restaurant & Bar,MANHATTAN,40.703122,-74.010928,1,1,9,1000008,1000070027,Battery Park City-Lower Manhattan                                          
Subway,28 Water Street,,New York,NY,10004,28-Jul,Casual Eating & Takeout,F-Fast Food,MANHATTAN,40.703095,-74.011029,1,1,9,1000009,1000070028,Battery Park City-Lower Manhattan                                          
Nelly's Hair Salon,28 Water Street,2nd Floor,New York,NY,10004,28-Jul,Personal and Professional Services,P-Hair Salon & Barber Shop,MANHATTAN,40.703095,-74.011029,1,1,9,1000009,1000070028,Battery Park City-Lower Manhattan                                          
Shoe Repair and Shine,105 Broad Street,,New York,NY,10004,31-Jul,Personal and Professional Services,P-Shoe Repair/Shine,MANHATTAN,40.703032,-74.011509,1,1,9,1000012,1000070031,Battery Park City-Lower Manhattan                                          
Rockwell's Deli,105 Broad Street,,New York,NY,10004,31-Jul,Casual Eating & Takeout,F-Deli,MANHATTAN,40.703032,-74.011509,1,1,9,1000012,1000070031,Battery Park City-Lower Manhattan                                          
Au Bon Pain,1 State Street Plaza,,New York,NY,10004,1-Sep,Casual Eating & Takeout,F-Cafe & Eatery,,,,,,,,,
Starbucks Coffee,1 Battery Park Plaza,,New York,NY,10004,29-Sep,Casual Eating & Takeout,F-Coffeehouse,,,,,,,,,
US Post Office-Whitehall Station,1 Whitehall Street,,New York,NY,10004,1-Oct,Community Resources,C-Post Office,MANHATTAN,40.703973,-74.013164,1,1,9,1000027,1000100023,Battery Park City-Lower Manhattan                                          
Flavors Cafe,27 Whitehall Street,,New York,NY,10004,15-Oct,Casual Eating & Takeout,F-Cafe & Eatery,MANHATTAN,40.703517,-74.013085,1,1,9,1000024,1000100015,Battery Park City-Lower Manhattan                                          
"Reyna's Nail Salon, Inc.",27 Whitehall Street,2nd Floor,New York,NY,10004,15-Oct,Personal and Professional Services,P-Nail Salon,MANHATTAN,40.703517,-74.013085,1,1,9,1000024,1000100015,Battery Park City-Lower Manhattan                                          
Broad-Stone Newsstand,20 Stone Street,,New York,NY,10004,16-Oct,Personal and Professional Services,P-Newsstands,MANHATTAN,40.704014,-74.011815,1,1,9,1000025,1000100016,Battery Park City-Lower Manhattan                                          
China Chalet,90 Broad Street,,New York,NY,10004,16-Oct,Full Service Dining,F-Chinese,MANHATTAN,40.703954,-74.011592,1,1,9,1000025,1000100016,Battery Park City-Lower Manhattan                                          
Pax Wholesome Foods,90 Broad Street,,New York,NY,10004,16-Oct,Casual Eating & Takeout,F-Cafe & Eatery,MANHATTAN,40.703954,-74.011592,1,1,9,1000025,1000100016,Battery Park City-Lower Manhattan                                          
New Stone Nails,90 Broad Street,,New York,NY,,16-Oct,Personal and Professional Services,P-Nail Salon,,,,,,,,,
Whitehorse Tavern,25 Bridge Street,,New York,NY,10004,19-Oct,Full Service Dining,F-Restaurant & Bar,MANHATTAN,40.703592,-74.012533,1,1,9,1000026,1000100019,Battery Park City-Lower Manhattan                                          
Duane Reade,1 Whitehall Street,,New York,NY,10004,23-Oct,Shopping,S-Drugstores,MANHATTAN,40.703973,-74.013164,1,1,9,1000027,1000100023,Battery Park City-Lower Manhattan                                          
California Wine Merchants,15 Bridge Street,,New York,NY,10004,23-Oct,Shopping,S-Liquor Store,MANHATTAN,40.703594,-74.012825,1,1,9,1000027,1000100023,Battery Park City-Lower Manhattan                                          
General Nutrition Center,2 Broadway,,New York,NY,10004,1-Nov,Shopping,S-Nutrition & Health,MANHATTAN,40.704119,-74.013186,1,1,9,1000029,1000110001,Battery Park City-Lower Manhattan                                          
Chipotle,2 Broadway,,New York,NY,10004,1-Nov,Casual Eating & Takeout,F-Mexican,MANHATTAN,40.704119,-74.013186,1,1,9,1000029,1000110001,Battery Park City-Lower Manhattan                                          
Nine West,2 Broadway,,New York,NY,10004,1-Nov,Shopping,S-Shoes: Women's,MANHATTAN,40.704119,-74.013186,1,1,9,1000029,1000110001,Battery Park City-Lower Manhattan                                          
Ann Taylor Loft,2 Broadway,,New York,NY,10004,1-Nov,Shopping,S-Apparel: Women's,MANHATTAN,40.704119,-74.013186,1,1,9,1000029,1000110001,Battery Park City-Lower Manhattan                                          
Aerosoles,2 Broadway,,New York,NY,10004,1-Nov,Shopping,S-Shoes: Women's,MANHATTAN,40.704119,-74.013186,1,1,9,1000029,1000110001,Battery Park City-Lower Manhattan                                          
Starbucks Coffee,2 Broadway,,New York,NY,10004,1-Nov,Casual Eating & Takeout,F-Coffeehouse,MANHATTAN,40.704119,-74.013186,1,1,9,1000029,1000110001,Battery Park City-Lower Manhattan                                          
MCU Municipal Credit Union - ATM,2 Broadway,,New York,NY,10004,1-Nov,Personal and Professional Services,P-Banks and Check Cashing,MANHATTAN,40.704119,-74.013186,1,1,9,1000029,1000110001,Battery Park City-Lower Manhattan                                          
Burger King,16 Beaver Street,,New York,NY,10004,7-Nov,Casual Eating & Takeout,F-Fast Food,MANHATTAN,40.704983,-74.012375,1,1,9,1000030,1000110007,Battery Park City-Lower Manhattan                                          
Ciao Bow Wow Dog Daycare,16 Beaver Street,2nd Floor,New York,NY,10004,7-Nov,Shopping,"S-Pet Stores, Supplies & Services",MANHATTAN,40.704983,-74.012375,1,1,9,1000030,1000110007,Battery Park City-Lower Manhattan                                          
Candy Plus,16 Beaver Street,,New York,NY,10004,7-Nov,Shopping,S-Candy & Chocolate,MANHATTAN,40.704983,-74.012375,1,1,9,1000030,1000110007,Battery Park City-Lower Manhattan                                          
Yip's Restaurant,18 Beaver Street,,New York,NY,10004,9-Nov,Casual Eating & Takeout,F-Chinese,MANHATTAN,40.704978,-74.012281,1,1,9,1000031,1000110009,Battery Park City-Lower Manhattan                                          
Georgio's Pizzeria,20 Beaver Street,,New York,NY,10004,10-Nov,Casual Eating & Takeout,F-Pizza,MANHATTAN,40.704972,-74.012187,1,1,9,1000032,1000110010,Battery Park City-Lower Manhattan                                          
Emanuel's Hair & Nail Salon,22 Beaver Street,2nd Floor,New York,NY,10004,11-Nov,Personal and Professional Services,P-Hair Salon & Barber Shop,MANHATTAN,40.70497,-74.01209,1,1,9,1000034,1000110011,Battery Park City-Lower Manhattan                                          
Trader's Cafe,22 Beaver Street,,New York,NY,10004,11-Nov,Casual Eating & Takeout,F-Deli,MANHATTAN,40.70497,-74.01209,1,1,9,1000034,1000110011,Battery Park City-Lower Manhattan                                          
NYC Check Express,24 Beaver Street,,New York,NY,10004,12-Nov,Personal and Professional Services,P-Banks and Check Cashing,MANHATTAN,40.704964,-74.011996,1,1,9,1000035,1000110012,Battery Park City-Lower Manhattan                                          
Pay Half,80 Broad Street,,New York,NY,10004,21-Nov,Shopping,S-Apparel: Women's,MANHATTAN,40.704322,-74.011581,1,1,9,1000038,1000110021,Battery Park City-Lower Manhattan                                          
Citibank ATM,80 Broad Street,,New York,NY,10004,21-Nov,Personal and Professional Services,P-Banks and Check Cashing,MANHATTAN,40.704322,-74.011581,1,1,9,1000038,1000110021,Battery Park City-Lower Manhattan                                          
Quizno's,80 Broad Street,,New York,NY,10004,21-Nov,Casual Eating & Takeout,F-Fast Food,MANHATTAN,40.704322,-74.011581,1,1,9,1000038,1000110021,Battery Park City-Lower Manhattan                                          
Abigail Pessen Mediation Services,80 Broad Street,30th Floor,New York,NY,,21-Nov,Personal and Professional Services,P-Other,,,,,,,,,
First Republic Bank,80 Broad Street,,New York,NY,10004,21-Nov,Personal and Professional Services,P-Banks and Check Cashing,MANHATTAN,40.704322,-74.011581,1,1,9,1000038,1000110021,Battery Park City-Lower Manhattan                                          
Giuliano Gourmet Pizza & Deli,88 Broad Street,,New York,NY,10004,26-Nov,Casual Eating & Takeout,F-Pizza,MANHATTAN,40.704056,-74.011588,1,1,9,1000039,1000110026,Battery Park City-Lower Manhattan                                          
Nebraska Steakhouse,15 Stone Street,,New York,NY,10004,27-Nov,Full Service Dining,F-Steak,MANHATTAN,40.704034,-74.012068,1,1,9,1000040,1000117501,Battery Park City-Lower Manhattan                                          
Urban Lobster Shack,15 Stone Street,,New York,NY,10004,27-Nov,Casual Eating & Takeout,F-Seafood,MANHATTAN,40.704034,-74.012068,1,1,9,1000040,1000117501,Battery Park City-Lower Manhattan                                          
Pizza Italia,11 Stone Street,,New York,NY,10004,29-Nov,Casual Eating & Takeout,F-Pizza,MANHATTAN,40.704039,-74.012317,1,1,9,1000041,1000110029,Battery Park City-Lower Manhattan                                          
Asian Fusion on Stone,11 Stone Street,2nd Floor,New York,NY,10004,29-Nov,Full Service Dining,F-Thai,MANHATTAN,40.704039,-74.012317,1,1,9,1000041,1000110029,Battery Park City-Lower Manhattan                                          
Ancora Ristorante,11 Stone Street,1st Floor,New York,NY,10004,29-Nov,Full Service Dining,F-Italian,MANHATTAN,40.704039,-74.012317,1,1,9,1000041,1000110029,Battery Park City-Lower Manhattan                                          
National Museum of the American Indian (Gift Shop),1 Bowling Green,,New York,NY,10004,1-Dec,Shopping,"S-Gifts, Cards & Stationery",,,,,,,,,
Dunkin Donuts,1 New York Plaza,Concourse Level,New York,NY,10004,Apr-01,Casual Eating & Takeout,F-Fast Food,,,,,,,,,
Thread Eyebrow Salon,140 Nassau Street,,New York,NY,10038,100-26,Personal and Professional Services,P-Eyebrows,MANHATTAN,40.711308,-74.006345,1,1,1501,1001354,1001000026,Battery Park City-Lower Manhattan                                          
Coiffeur,140 Nassau Street,,New York,NY,10038,100-26,Personal and Professional Services,P-Hair Salon & Barber Shop,MANHATTAN,40.711308,-74.006345,1,1,1501,1001354,1001000026,Battery Park City-Lower Manhattan                                          
Bank of America ATM,140 Nassau Street,,New York,NY,10038,100-26,Personal and Professional Services,P-Banks and Check Cashing,MANHATTAN,40.711308,-74.006345,1,1,1501,1001354,1001000026,Battery Park City-Lower Manhattan                                          
Verizon Wireless,38 Park Row,,New York,NY,10038,101-1,Shopping,S-Cellular Phones,MANHATTAN,40.71181,-74.006659,1,1,1501,1001355,1001010001,Battery Park City-Lower Manhattan                                          
The Hat Corner,145 Nassau Street,,New York,NY,10038,101-1,Shopping,S-Accessories,MANHATTAN,40.71136,-74.006298,1,1,1501,1001355,1001010001,Battery Park City-Lower Manhattan                                          
Edible Arrangements,145 Nassau Street,1st Floor,New York,NY,10038,101-1,Shopping,S-Florist,MANHATTAN,40.71136,-74.006298,1,1,1501,1001355,1001010001,Battery Park City-Lower Manhattan                                          
Shoetown,145 Nassau Street,,New York,NY,10038,101-1,Shopping,S-Shoes: Women's,MANHATTAN,40.71136,-74.006298,1,1,1501,1001355,1001010001,Battery Park City-Lower Manhattan                                          
Antonella's Salon,6-8 Beekman Street,,New York,NY,10038,101-1,Personal and Professional Services,P-Hair Salon & Barber Shop,MANHATTAN,40.711533,-74.006785,1,1,1501,1001355,1001010001,Battery Park City-Lower Manhattan                                          
Starbucks Coffee,38 Park Row,,New York,NY,10038,101-1,Casual Eating & Takeout,F-Coffeehouse,MANHATTAN,40.71181,-74.006659,1,1,1501,1001355,1001010001,Battery Park City-Lower Manhattan                                          
Optimo Cigars,38 Park Row,,New York,NY,10038,101-1,Personal and Professional Services,P-Newsstands,MANHATTAN,40.71181,-74.006659,1,1,1501,1001355,1001010001,Battery Park City-Lower Manhattan                                          
Barnes & Noble Pace University Bookstore,41 Park Row,,New York,NY,,101-2,Shopping,S-Bookstores,,,,,,,,,
Bits Bites & Baguettes,22 Park Place,,New York,NY,10007,123-18,Casual Eating & Takeout,F-American,MANHATTAN,40.712886,-74.008466,1,1,21,1001397,1001230018,SoHo-TriBeCa-Civic Center-Little Italy                                     
Toastie's Deli,25 John Street,,New York,NY,10038,123-22,Casual Eating & Takeout,F-Deli,MANHATTAN,40.709768,-74.008736,1,1,1502,1001215,1000797503,Battery Park City-Lower Manhattan                                          
Starbucks Coffee,233 Broadway,,New York,NY,10007,123-22,Casual Eating & Takeout,F-Coffeehouse,MANHATTAN,40.712265,-74.007892,1,1,21,1087167,1001237501,SoHo-TriBeCa-Civic Center-Little Italy                                     
Papyrus,233 Broadway,,New York,NY,10007,123-22,Shopping,"S-Gifts, Cards & Stationery",MANHATTAN,40.712265,-74.007892,1,1,21,1087167,1001237501,SoHo-TriBeCa-Civic Center-Little Italy                                     
Woolworth Tower Kitchen,9 Barclay Street,,New York,NY,10007,123-22,Full Service Dining,F-American,MANHATTAN,40.712208,-74.008542,1,1,21,1087167,1001237501,SoHo-TriBeCa-Civic Center-Little Italy                                     
Off Track Betting,25 Park Place,,New York,NY,10007,124-11,Personal and Professional Services,P-Gaming,MANHATTAN,40.713081,-74.008852,1,1,21,1001404,1001240011,SoHo-TriBeCa-Civic Center-Little Italy                                     
Church Street Boxing Gym,25 Park Place,Basement,New York,NY,10007,124-11,Personal and Professional Services,P-Athletic Clubs/Fitness,MANHATTAN,40.713081,-74.008852,1,1,21,1001404,1001240011,SoHo-TriBeCa-Civic Center-Little Italy                                     
AT&T,113 Church Street,,New York,NY,10007,124-12,Shopping,S-Cellular Phones,MANHATTAN,40.713522,-74.009036,1,1,21,1001405,1001240012,SoHo-TriBeCa-Civic Center-Little Italy                                     
Shinjuku,105 Church Street,,New York,NY,10007,124-12,Casual Eating & Takeout,F-Japanese,MANHATTAN,40.713171,-74.00931,1,1,21,1089428,1001237502,SoHo-TriBeCa-Civic Center-Little Italy                                     
Marie Costa News Stand,27 Park Place,,New York,NY,10007,124-12,Personal and Professional Services,P-Newsstands,MANHATTAN,40.713116,-74.008931,1,1,21,1001405,1001240012,SoHo-TriBeCa-Civic Center-Little Italy                                     
Sufu Nail & Spa,113 Church Street,,New York,NY,10007,124-12,Personal and Professional Services,P-Nail Salon,MANHATTAN,40.713522,-74.009036,1,1,21,1001405,1001240012,SoHo-TriBeCa-Civic Center-Little Italy                                     
Yasha's Shoe Shine and Repair,109 Church Street,,New York,NY,10007,124-12,Personal and Professional Services,P-Shoe Repair/Shine,MANHATTAN,40.713396,-74.009133,1,1,21,1001405,1001240012,SoHo-TriBeCa-Civic Center-Little Italy                                     
Kunal Grocery Inc.,27 Park Place,#6,New York,NY,10007,124-12,Personal and Professional Services,P-Newsstands,MANHATTAN,40.713116,-74.008931,1,1,21,1001405,1001240012,SoHo-TriBeCa-Civic Center-Little Italy                                     
Club Remix,27 Park Place,,New York,NY,10007,124-12,Nightlife,N-Club,MANHATTAN,40.713116,-74.008931,1,1,21,1001405,1001240012,SoHo-TriBeCa-Civic Center-Little Italy                                     
Star Pizza,26 Murray Street,,New York,NY,10007,124-12,Casual Eating & Takeout,F-Pizza,MANHATTAN,40.713575,-74.008372,1,1,21,1001405,1001240012,SoHo-TriBeCa-Civic Center-Little Italy                                     
N.C.R. DVD Video Inc.,105 Church Street,,New York,NY,10007,124-12,Shopping,S-Adult Novelties,MANHATTAN,40.713171,-74.00931,1,1,21,1089428,1001237502,SoHo-TriBeCa-Civic Center-Little Italy                                     
Downtown Deli,107 Church Street,,New York,NY,10007,124-12,Casual Eating & Takeout,F-Deli,MANHATTAN,40.713333,-74.009184,1,1,21,1001405,1001240012,SoHo-TriBeCa-Civic Center-Little Italy                                     
KD Connelly's,6 Murray Street,,New York,NY,10007,124-21,Full Service Dining,F-Irish Pub,MANHATTAN,40.713229,-74.007622,1,1,21,1001407,1001240021,SoHo-TriBeCa-Civic Center-Little Italy                                     
Dunkin Donuts,5 Park Place,,New York,NY,10038,124-24,Casual Eating & Takeout,F-Fast Food,MANHATTAN,40.712718,-74.008055,1,1,21,1001408,1001240024,SoHo-TriBeCa-Civic Center-Little Italy                                     
Duane Reade,250 Broadway,,New York,NY,10007,124-24,Shopping,S-Drugstores,MANHATTAN,40.712982,-74.007301,1,1,21,1001408,1001240024,SoHo-TriBeCa-Civic Center-Little Italy                                     
Citibank,250 Broadway,,New York,NY,10013,124-24,Personal and Professional Services,P-Banks and Check Cashing,MANHATTAN,40.712982,-74.007301,1,1,21,1001408,1001240024,SoHo-TriBeCa-Civic Center-Little Italy                                     
Church & Dey Restaurant,Millenium Hilton Hotel,"55 Church Street, Floor 3",New York,NY,10007,80-4,Full Service Dining,F-American,,,,,,,,,
Sunny's Deli,11 Park Place,,New York,NY,10007,124-4,Casual Eating & Takeout,F-Deli,MANHATTAN,40.712828,-74.008296,1,1,21,1001399,1001240004,SoHo-TriBeCa-Civic Center-Little Italy                                     
Muscle Maker Grill,10 Murray Street,,New York,NY,10007,124-4,Casual Eating & Takeout,F-Health,MANHATTAN,40.713298,-74.007773,1,1,21,1001399,1001240004,SoHo-TriBeCa-Civic Center-Little Italy                                     
Best of the Best Deli,11 Park Place,,New York,NY,10007,124-4,Casual Eating & Takeout,F-Deli,MANHATTAN,40.712828,-74.008296,1,1,21,1001399,1001240004,SoHo-TriBeCa-Civic Center-Little Italy                                     
Little Italy Pizza,11 Park Place,,New York,NY,10007,124-4,Casual Eating & Takeout,F-Pizza,MANHATTAN,40.712828,-74.008296,1,1,21,1001399,1001240004,SoHo-TriBeCa-Civic Center-Little Italy                                     
Digital Hard Copy,14 Murray Street,,New York,NY,10007,124-7,Personal and Professional Services,P-Copy and Printing Services,MANHATTAN,40.713369,-74.007921,1,1,21,1001400,1001240007,SoHo-TriBeCa-Civic Center-Little Italy                                     
Taj Tribeca,18 Murray Street,,New York,NY,10007,124-7501,Casual Eating & Takeout,F-Indian,MANHATTAN,40.713437,-74.008073,1,1,21,1001406,1001247501,SoHo-TriBeCa-Civic Center-Little Italy                                     
Tent & Trails,21 Park Place,,New York,NY,10007,124-9,Shopping,S-Sporting Goods & Athletic Wear,MANHATTAN,40.713009,-74.008693,1,1,21,1001402,1001240009,SoHo-TriBeCa-Civic Center-Little Italy                                     
Amish Fine Food,53 Park Place,,New York,NY,10007,126-13,Shopping,F-Supermarket,MANHATTAN,40.713764,-74.010356,1,1,21,1001412,1001260013,SoHo-TriBeCa-Civic Center-Little Italy                                     
AT&T Device Support Center,33 Park Place,,New York,NY,10007,126-27,Shopping,S-Cellular Phones,MANHATTAN,40.713358,-74.009462,1,1,21,1001410,1001260027,SoHo-TriBeCa-Civic Center-Little Italy                                     
Equinox Fitness Club,54 Murray Street,,New York,NY,10007,126-27,Personal and Professional Services,P-Athletic Clubs/Fitness,MANHATTAN,40.71417,-74.009678,1,1,21,1001410,1001260027,SoHo-TriBeCa-Civic Center-Little Italy                                     
Duane Reade,37 Broadway,,New York,NY,10006,20-4,Shopping,S-Drugstores,MANHATTAN,40.706202,-74.012992,1,1,13,1000803,1000200004,Battery Park City-Lower Manhattan                                          
Emigrant Savings Bank,110 Church Street,,New York,NY,10007,126-27,Personal and Professional Services,P-Banks and Check Cashing,MANHATTAN,40.713341,-74.009202,1,1,21,1001410,1001260027,SoHo-TriBeCa-Civic Center-Little Italy                                     
Starbucks Coffee,120 Church Street,,New York,NY,10007,126-27,Casual Eating & Takeout,F-Coffeehouse,MANHATTAN,40.71361,-74.008989,1,1,21,1001410,1001260027,SoHo-TriBeCa-Civic Center-Little Italy                                     
De Janeiro,110 Church Street,,New York,NY,10007,126-27,Shopping,S-Apparel: Women's,MANHATTAN,40.713341,-74.009202,1,1,21,1001410,1001260027,SoHo-TriBeCa-Civic Center-Little Italy                                     
Dakota Roadhouse,43 Park Place,,New York,NY,10007,126-8,Nightlife,N-Bar,MANHATTAN,40.71355,-74.009884,1,1,21,1001411,1001260008,SoHo-TriBeCa-Civic Center-Little Italy                                     
Chase Bank,101 Barclay Street,,New York,NY,10007,128-2,Personal and Professional Services,P-Banks and Check Cashing,MANHATTAN,40.713767,-74.011925,1,1,21,1001416,1001280002,SoHo-TriBeCa-Civic Center-Little Italy                                     
Citibank,1 Broadway,,New York,NY,10004,13-1,Personal and Professional Services,P-Banks and Check Cashing,MANHATTAN,40.704785,-74.014099,1,1,13,1000043,1000130001,Battery Park City-Lower Manhattan                                          
Perfect Copy Center,11 Broadway,4th Floor,New York,NY,10004,13-5,Personal and Professional Services,P-Copy and Printing Services,MANHATTAN,40.705354,-74.013731,1,1,13,1000044,1000130005,Battery Park City-Lower Manhattan                                          
Cafe Plaza Deli,11 Broadway,,New York,NY,10004,13-5,Casual Eating & Takeout,F-Deli,MANHATTAN,40.705354,-74.013731,1,1,13,1000044,1000130005,Battery Park City-Lower Manhattan                                          
Subway,11 Broadway,,New York,NY,10004,13-5,Casual Eating & Takeout,F-Fast Food,MANHATTAN,40.705354,-74.013731,1,1,13,1000044,1000130005,Battery Park City-Lower Manhattan                                          
New York Wine Exchange,9 Broadway,,New York,NY,10004,13-5,Shopping,S-Liquor Store,MANHATTAN,40.705238,-74.013828,1,1,13,1000044,1000130005,Battery Park City-Lower Manhattan                                          
Radio Shack,9 Broadway,,New York,NY,10004,13-5,Shopping,S-Computers & Electronics,MANHATTAN,40.705238,-74.013828,1,1,13,1000044,1000130005,Battery Park City-Lower Manhattan                                          
Berkshire Bank,5 Broadway,,New York,NY,10004,13-5,Personal and Professional Services,P-Banks and Check Cashing,MANHATTAN,40.705019,-74.013983,1,1,13,1000044,1000130005,Battery Park City-Lower Manhattan                                          
Ferris Consulting Corporation,11 Broadway,4th Floor,New York,NY,10004,13-5,Personal and Professional Services,P-Other,MANHATTAN,40.705354,-74.013731,1,1,13,1000044,1000130005,Battery Park City-Lower Manhattan                                          
City Blossoms,2 Washington Street,,New York,NY,10004,15-1,Shopping,S-Florist,MANHATTAN,40.705137,-74.015585,1,1,13,1087080,1000157501,Battery Park City-Lower Manhattan                                          
Duane Reade,17 Battery Place,,New York,NY,10004,15-1,Shopping,S-Drugstores,MANHATTAN,40.704884,-74.015927,1,1,13,1082634,1000157501,Battery Park City-Lower Manhattan                                          
Zaytuna,17 Battery Place,,New York,NY,10004,15-1,Shopping,F-Gourmet Food Shops,MANHATTAN,40.704884,-74.015927,1,1,13,1082634,1000157501,Battery Park City-Lower Manhattan                                          
West Bank Gourmet,21 West Street,,New York,NY,10006,15-22,Casual Eating & Takeout,F-Deli,MANHATTAN,40.706451,-74.016119,1,1,13,1000047,1000150022,Battery Park City-Lower Manhattan                                          
Merchants NY Cafe,90 Washington Street,,New York,NY,10006,17-29,Full Service Dining,F-American,MANHATTAN,40.708082,-74.014446,1,1,13,1000793,1000170029,Battery Park City-Lower Manhattan                                          
West Street Wine & Spirits Outlet,56 West Street,,New York,NY,10006,17-7502,Shopping,S-Liquor Store,MANHATTAN,40.708403,-74.015369,1,1,13,1000792,1000177502,Battery Park City-Lower Manhattan                                          
Petropolis,91 Washington Street,,New York,NY,10006,18-27,Shopping,"S-Pet Stores, Supplies & Services",MANHATTAN,40.708038,-74.014442,1,1,13,1000794,1000187501,Battery Park City-Lower Manhattan                                          
"Jeffrey Levine, Attorney At Law",19 Rector Street,,New York,NY,10006,18-27,Personal and Professional Services,P-Other,MANHATTAN,40.708134,-74.014128,1,1,13,1000794,1000187501,Battery Park City-Lower Manhattan                                          
United States Postal Service Automated Postal Center,15 Rector Street,,New York,NY,,18-7501,Personal and Professional Services,P-Packaging/Shipping,,,,,,,,,
Syms,42 Trinity Place,,New York,NY,10006,19-13,Shopping,S-Apparel: Men's & Women's,MANHATTAN,40.707437,-74.013194,1,1,13,1000797,1000190013,Battery Park City-Lower Manhattan                                          
Tajin Mexican,85 Greenwich Street,,New York,NY,10006,19-18,Casual Eating & Takeout,F-Mexican,MANHATTAN,40.707725,-74.013684,1,1,13,1000799,1000190019,Battery Park City-Lower Manhattan                                          
NYC Check Express Inc.,46 Trinity Place,,New York,NY,10006,19-19,Personal and Professional Services,P-Banks and Check Cashing,MANHATTAN,40.707533,-74.013133,1,1,13,1000799,1000190019,Battery Park City-Lower Manhattan                                          
Check Express,46 Trinity Place,1st Floor,New York,NY,,19-19,Personal and Professional Services,P-Banks and Check Cashing,,,,,,,,,
George's New York,89 Greenwich Street,,New York,NY,10006,19-21,Casual Eating & Takeout,F-American,MANHATTAN,40.707835,-74.013638,1,1,13,1000800,1000190021,Battery Park City-Lower Manhattan                                          
Travelex,29 Broadway,,New York,NY,10006,20-1,Visitor Services,V-Currency Exchange,MANHATTAN,40.70601,-74.01315,1,1,13,1000802,1000200001,Battery Park City-Lower Manhattan                                          
Bank of America,29 Broadway,,New York,NY,10006,20-1,Personal and Professional Services,P-Banks and Check Cashing,MANHATTAN,40.70601,-74.01315,1,1,13,1000802,1000200001,Battery Park City-Lower Manhattan                                          
China Chalet,47 Broadway,2nd Floor,New York,NY,10006,20-12,Full Service Dining,F-Chinese,MANHATTAN,40.706443,-74.01279,1,1,13,1000805,1000200012,Battery Park City-Lower Manhattan                                          
T.G.I. Friday's,47 Broadway,,New York,NY,10006,20-12,Full Service Dining,F-Restaurant & Bar,MANHATTAN,40.706443,-74.01279,1,1,13,1000805,1000200012,Battery Park City-Lower Manhattan                                          
Cafe Exchange & Catering,49 Broadway,,New York,NY,10006,20-13,Casual Eating & Takeout,F-Deli,MANHATTAN,40.706493,-74.01275,1,1,13,1000806,1000200013,Battery Park City-Lower Manhattan                                          
Sale & Pepe Fine Foods & Catering,1 Exchange Plaza,,New York,NY,10006,20-16,Casual Eating & Takeout,F-American,,,,,,,,,
Arce Shoe Repair,1 Exchange Plaza,,New York,NY,10006,20-16,Personal and Professional Services,P-Shoe Repair/Shine,,,,,,,,,
FedEx Kinkos,55 Broadway,,New York,NY,10006,20-16,Personal and Professional Services,P-Packaging/Shipping,MANHATTAN,40.706638,-74.012631,1,1,13,1000807,1000200016,Battery Park City-Lower Manhattan                                          
Blarney Stone,11 Trinity Place,,New York,NY,10006,20-4,Full Service Dining,F-Irish Pub,MANHATTAN,40.706531,-74.013847,1,1,13,1000803,1000200004,Battery Park City-Lower Manhattan                                          
Hallmark Gold Crown,39 Broadway,,New York,NY,10006,20-4,Shopping,"S-Gifts, Cards & Stationery",MANHATTAN,40.706251,-74.012952,1,1,13,1000803,1000200004,Battery Park City-Lower Manhattan                                          
Variety Cafe On Broadway,65 Broadway,,New York,NY,10006,21-4,Casual Eating & Takeout,F-Deli,MANHATTAN,40.707113,-74.012234,1,1,13,1000809,1000210004,Battery Park City-Lower Manhattan                                          
New York Diamond Center,65 Broadway,Suite 744,New York,NY,,21-4,Shopping,S-Jeweler,,,,,,,,,
Bean & Bean Organic Coffee,71 Broadway,,New York,NY,10006,21-6,Casual Eating & Takeout,F-Coffeehouse,MANHATTAN,40.707294,-74.01209,1,1,13,1000810,1000210006,Battery Park City-Lower Manhattan                                          
71 Cleaners,71 Broadway,Lower Level,New York,NY,10006,21-6,Personal and Professional Services,P-Dry Cleaning,MANHATTAN,40.707294,-74.01209,1,1,13,1000810,1000210006,Battery Park City-Lower Manhattan                                          
Champs Gourmet Deli,71 Broadway,,New York,NY,10006,21-6,Casual Eating & Takeout,F-Deli,MANHATTAN,40.707294,-74.01209,1,1,13,1000810,1000210006,Battery Park City-Lower Manhattan                                          
International Haircutters,1 Rector Street,,New York,NY,10006,21-6,Personal and Professional Services,P-Hair Salon & Barber Shop,MANHATTAN,40.707492,-74.012101,1,1,13,1000810,1000210006,Battery Park City-Lower Manhattan                                          
David Shoe Repair,71 Broadway,,New York,NY,10006,21-6,Personal and Professional Services,P-Shoe Repair/Shine,MANHATTAN,40.707294,-74.01209,1,1,13,1000810,1000210006,Battery Park City-Lower Manhattan                                          
Stapleton Factory Shoe Outlet,1 Rector Street,,New York,NY,10006,21-6,Shopping,S-Shoes: Men's,MANHATTAN,40.707492,-74.012101,1,1,13,1000810,1000210006,Battery Park City-Lower Manhattan                                          
Signature Bank,71 Broadway,,New York,NY,10006,21-6,Personal and Professional Services,P-Banks and Check Cashing,MANHATTAN,40.707294,-74.01209,1,1,13,1000810,1000210006,Battery Park City-Lower Manhattan                                          
Complete Entertainment Exchange,71 Broadway,Lower Level,New York,NY,10006,21-6,Shopping,S-Computers & Electronics,MANHATTAN,40.707294,-74.01209,1,1,13,1000810,1000210006,Battery Park City-Lower Manhattan                                          
"Das Smoke Shop, Inc.",26 Broadway,9th Floor,New York,NY,10004,22-13,Personal and Professional Services,P-Newsstands,MANHATTAN,40.70568,-74.013302,1,1,9,1000811,1000220013,Battery Park City-Lower Manhattan                                          
HSBC,26 Broadway,,New York,NY,10004,22-13,Personal and Professional Services,P-Banks and Check Cashing,MANHATTAN,40.70568,-74.013302,1,1,9,1000811,1000220013,Battery Park City-Lower Manhattan                                          
Sol Speedy,26 Broadway,Lobby,New York,NY,10004,22-13,Personal and Professional Services,P-Copy and Printing Services,MANHATTAN,40.70568,-74.013302,1,1,9,1000811,1000220013,Battery Park City-Lower Manhattan                                          
Sophie's Cuban Cuisine,73 New Street,,New York,NY,10004,22-13,Casual Eating & Takeout,F-Caribbean,MANHATTAN,40.705417,-74.01244,1,1,9,1000811,1000220013,Battery Park City-Lower Manhattan                                          
Blue Chip Deli,26 Broadway,Lobby,New York,NY,10004,22-13,Casual Eating & Takeout,F-Deli,MANHATTAN,40.70568,-74.013302,1,1,9,1000811,1000220013,Battery Park City-Lower Manhattan                                          
Stir Cafe,32 Broadway,,New York,NY,10004,22-17,Casual Eating & Takeout,F-Cafe & Eatery,MANHATTAN,40.706045,-74.013096,1,1,9,1078979,1000220017,Battery Park City-Lower Manhattan                                          
Pita Grill,69 New Street,,New York,NY,10004,22-17,Casual Eating & Takeout,F-Middle Eastern,MANHATTAN,40.705507,-74.012396,1,1,9,1078979,1000220017,Battery Park City-Lower Manhattan                                          
The Grotto Restaurant & Catering,69 New Street,Lower Level,New York,NY,10004,22-17,Casual Eating & Takeout,F-Pizza,MANHATTAN,40.705507,-74.012396,1,1,9,1078979,1000220017,Battery Park City-Lower Manhattan                                          
Sushi by Bento Nouveau,32 Broadway,,New York,NY,10004,22-17,Casual Eating & Takeout,F-Japanese,MANHATTAN,40.706045,-74.013096,1,1,9,1078979,1000220017,Battery Park City-Lower Manhattan                                          
New Street Barber Shop,42 Broadway,Lower Level,New York,NY,10004,22-20,Personal and Professional Services,P-Hair Salon & Barber Shop,MANHATTAN,40.70627,-74.012909,1,1,9,1000812,1000220020,Battery Park City-Lower Manhattan                                          
Chase Bank,42 Broadway,,New York,NY,10004,22-20,Personal and Professional Services,P-Banks and Check Cashing,MANHATTAN,40.70627,-74.012909,1,1,9,1000812,1000220020,Battery Park City-Lower Manhattan                                          
Staples,42 Broadway,,New York,NY,10004,22-20,Shopping,S-Office Supplies & Equipment,MANHATTAN,40.70627,-74.012909,1,1,9,1000812,1000220020,Battery Park City-Lower Manhattan                                          
VMS Candy & Cigar Corporation,42 Broadway,Lobby,New York,NY,10004,22-20,Personal and Professional Services,P-Newsstands,MANHATTAN,40.70627,-74.012909,1,1,9,1000812,1000220020,Battery Park City-Lower Manhattan                                          
Daffy's,50 Broadway,,New York,NY,10004,22-22,Shopping,S-Apparel: Men's & Women's,MANHATTAN,40.706449,-74.012761,1,1,9,1000813,1000220024,Battery Park City-Lower Manhattan                                          
Pret A Manger,50 Broadway,,New York,NY,10004,22-24,Casual Eating & Takeout,F-Cafe & Eatery,MANHATTAN,40.706449,-74.012761,1,1,9,1000813,1000220024,Battery Park City-Lower Manhattan                                          
Trade Center Lock & Hardware,45 New Street,,New York,NY,10004,22-24,Personal and Professional Services,P-Hardware & Locksmiths,MANHATTAN,40.706051,-74.01213,1,1,9,1000813,1000220024,Battery Park City-Lower Manhattan                                          
Cafe Bravo,52 Broadway,,New York,NY,10004,22-28,Casual Eating & Takeout,F-Deli,MANHATTAN,40.706493,-74.012725,1,1,9,1000814,1000220028,Battery Park City-Lower Manhattan                                          
Amalgamated Bank,52 Broadway,,New York,NY,10004,22-28,Personal and Professional Services,P-Banks and Check Cashing,MANHATTAN,40.706493,-74.012725,1,1,9,1000814,1000220028,Battery Park City-Lower Manhattan                                          
Bank of New York Mellon,1 Wall Street,,New York,NY,10286,23-7,Personal and Professional Services,P-Banks and Check Cashing,MANHATTAN,40.707712,-74.011643,1,1,7,1000815,1000230007,Battery Park City-Lower Manhattan                                          
"Christopher Norman Chocolates, Ltd.",60 New Street,,New York,NY,10004,24-1,Shopping,S-Candy & Chocolate,MANHATTAN,40.705411,-74.012418,1,1,9,1000817,1000240001,Battery Park City-Lower Manhattan                                          
Pret A Manger,60 Broad Street,,New York,NY,10005,24-1,Casual Eating & Takeout,F-Cafe & Eatery,MANHATTAN,40.705351,-74.011502,1,1,9,1000817,1000240001,Battery Park City-Lower Manhattan                                          
Au Bon Pain,60 Broad Street,,New York,NY,10004,24-1,Casual Eating & Takeout,F-Cafe & Eatery,MANHATTAN,40.705351,-74.011502,1,1,9,1000817,1000240001,Battery Park City-Lower Manhattan                                          
LensCrafters Optique,60 Broad Street,,New York,NY,10004,24-1,Personal and Professional Services,S-Glasses & Sunglasses,MANHATTAN,40.705351,-74.011502,1,1,9,1000817,1000240001,Battery Park City-Lower Manhattan                                          
Blue Chip Unisex Salon,44 New Street,,New York,NY,10004,24-19,Personal and Professional Services,P-Hair Salon & Barber Shop,MANHATTAN,40.705895,-74.012184,1,1,9,1000818,1000240019,Battery Park City-Lower Manhattan                                          
Mohan Jewelers,44 New Street,,New York,NY,,24-19,Shopping,S-Jeweler,,,,,,,,,
Champs Gourmet Deli,30 Broad Street,,New York,NY,10004,24-29,Casual Eating & Takeout,F-Deli,MANHATTAN,40.70618,-74.01125,1,1,9,1000819,1000240029,Battery Park City-Lower Manhattan                                          
Dijon,30 New Street,,New York,NY,10004,24-29,Shopping,S-Apparel: Women's,MANHATTAN,40.706314,-74.011978,1,1,9,1000819,1000240029,Battery Park City-Lower Manhattan                                          
Subway,30 New Street,,New York,NY,10004,24-29,Casual Eating & Takeout,F-Fast Food,MANHATTAN,40.706314,-74.011978,1,1,9,1000819,1000240029,Battery Park City-Lower Manhattan                                          
Roman Shoe Repair & Shine,30 New Street,Ground Level,New York,NY,10004,24-29,Personal and Professional Services,P-Shoe Repair/Shine,MANHATTAN,40.706314,-74.011978,1,1,9,1000819,1000240029,Battery Park City-Lower Manhattan                                          
SHO Shaun Hergatt at The Setai,40 Broad Street,,New York,NY,10012,24-32,Full Service Dining,F-Euro Asian,MANHATTAN,40.706021,-74.011332,1,1,9,1078985,1000247501,Battery Park City-Lower Manhattan                                          
Liberty Travel,50 Broad Street,,New York,NY,10004,24-36,Personal and Professional Services,P-Travel Agency,MANHATTAN,40.705689,-74.011455,1,1,9,1000820,1000240036,Battery Park City-Lower Manhattan                                          
New York Lottery,15 Beaver Street,,New York,NY,10004,24-38,Personal and Professional Services,P-Gaming,MANHATTAN,40.705002,-74.012468,1,1,9,1000817,1000240001,Battery Park City-Lower Manhattan                                          
Gary Vending,25 Beaver Street,Lobby,New York,NY,10004,24-38,Personal and Professional Services,P-Newsstands,MANHATTAN,40.704983,-74.012046,1,1,9,1000817,1000240001,Battery Park City-Lower Manhattan                                          
Broad Street Jewelers,29 Beaver Street,,New York,NY,10004,24-38,Shopping,S-Jeweler,MANHATTAN,40.704975,-74.011881,1,1,9,1000817,1000240001,Battery Park City-Lower Manhattan                                          
The Setai Spa,40 Broad Street,Floor 3,New York,NY,10004,24-7501,Personal and Professional Services,P-Spa,MANHATTAN,40.706021,-74.011332,1,1,9,1078985,1000247501,Battery Park City-Lower Manhattan                                          
Cosi Sandwich Bar,55 Broad Street,,New York,NY,10004,25-1,Casual Eating & Takeout,F-Cafe & Eatery,MANHATTAN,40.705189,-74.011505,1,1,9,1000821,1000250001,Battery Park City-Lower Manhattan                                          
Starbucks Coffee,55 Broad Street,,New York,NY,10004,25-1,Casual Eating & Takeout,F-Coffeehouse,MANHATTAN,40.705189,-74.011505,1,1,9,1000821,1000250001,Battery Park City-Lower Manhattan                                          
Bobby Van's Steakhouse,25 Broad Street,,New York,NY,10004,25-19,Full Service Dining,F-Steak,MANHATTAN,40.706114,-74.01126,1,1,9,1000824,1000250019,Battery Park City-Lower Manhattan                                          
Exchange Cleaners,25 Broad Street,,New York,NY,10004,25-19,Personal and Professional Services,P-Dry Cleaning,MANHATTAN,40.706114,-74.01126,1,1,9,1000824,1000250019,Battery Park City-Lower Manhattan                                          
Canali,25 Broad Street,,New York,NY,10005,25-19,Shopping,S-Apparel: Men's,MANHATTAN,40.706114,-74.01126,1,1,9,1000824,1000250019,Battery Park City-Lower Manhattan                                          
Bobby Van's Grill,25 Broad Street,,New York,NY,10004,25-19,Full Service Dining,F-Steak,MANHATTAN,40.706114,-74.01126,1,1,9,1000824,1000250019,Battery Park City-Lower Manhattan                                          
De Janeiro,27 William Street,,New York,NY,10005,25-27,Shopping,S-Apparel: Women's,MANHATTAN,40.705565,-74.00994,1,1,9,1000825,1000250027,Battery Park City-Lower Manhattan                                          
Blimpie,40 Exchange Place,,New York,NY,10005,25-27,Casual Eating & Takeout,F-Fast Food,MANHATTAN,40.705939,-74.010283,1,1,9,1000825,1000250027,Battery Park City-Lower Manhattan                                          
All Brands Office Equipment Inc.,40 Exchange Place,4th Floor,New York,NY,10005,25-27,Shopping,S-Office Supplies & Equipment,MANHATTAN,40.705939,-74.010283,1,1,9,1000825,1000250027,Battery Park City-Lower Manhattan                                          
"Sam Swick Leather Goods, Inc.",40 Exchange Place,Suite 1709,New York,NY,10005,25-27,Shopping,S-Leather & Luggage,MANHATTAN,40.705939,-74.010283,1,1,9,1000825,1000250027,Battery Park City-Lower Manhattan                                          
Minas Shoe Repair Inc.,40 Exchange Place,,New York,NY,10006,25-27,Personal and Professional Services,P-Shoe Repair/Shine,MANHATTAN,40.705939,-74.010283,1,1,9,1000825,1000250027,Battery Park City-Lower Manhattan                                          
The Irish Punt,40 Exchange Place,,New York,NY,10005,25-27,Full Service Dining,F-Irish Pub,MANHATTAN,40.705939,-74.010283,1,1,9,1000825,1000250027,Battery Park City-Lower Manhattan                                          
Cafe Doppio,55 Broad Street,,New York,NY,10004,25-32,Casual Eating & Takeout,F-Cafe & Eatery,MANHATTAN,40.705189,-74.011505,1,1,9,1000821,1000250001,Battery Park City-Lower Manhattan                                          
Hale and Hearty Soup,55 Broad Street,,New York,NY,10004,25-32,Casual Eating & Takeout,F-Soup,MANHATTAN,40.705189,-74.011505,1,1,9,1000821,1000250001,Battery Park City-Lower Manhattan                                          
Chase Bank,45 Wall Street,,New York,NY,10286,26-1,Personal and Professional Services,P-Banks and Check Cashing,MANHATTAN,40.706595,-74.009861,1,1,7,1000826,1000260021,Battery Park City-Lower Manhattan                                          
Black Label,43 Exchange Place,,New York,NY,10005,26-14,Personal and Professional Services,P-Spa,MANHATTAN,40.706015,-74.010445,1,1,7,1078991,1000260014,Battery Park City-Lower Manhattan                                          
Tiffany & Co.,37 Wall Street,,New York,NY,10005,26-14,Shopping,S-Jeweler,MANHATTAN,40.70674,-74.010095,1,1,7,1078992,1000260014,Battery Park City-Lower Manhattan                                          
Tourbillon,45 Wall Street,,New York,NY,10004,26-21,Shopping,S-Jeweler,MANHATTAN,40.706595,-74.009861,1,1,7,1000826,1000260021,Battery Park City-Lower Manhattan                                          
Cucina Bene,41 Exchange Place,,New York,NY,10004,26-21,Casual Eating & Takeout,F-Pizza,MANHATTAN,40.705988,-74.010366,1,1,7,1000826,1000260021,Battery Park City-Lower Manhattan                                          
Hermés,15 Broad Street,,New York,NY,10005,26-7501,Shopping,S-Apparel: Men's & Women's,MANHATTAN,40.706531,-74.011022,1,1,7,1078988,1000267501,Battery Park City-Lower Manhattan                                          
Cipriani Wall Street,55 Wall Street,,New York,NY,10005,27-1,Full Service Dining,F-Italian,MANHATTAN,40.706191,-74.009165,1,1,7,1000827,1000277501,Battery Park City-Lower Manhattan                                          
Minas Shoe Repair Inc.,67 Wall Street,,New York,NY,10005,27-17,Personal and Professional Services,P-Shoe Repair/Shine,MANHATTAN,40.705749,-74.008342,1,1,7,1000829,1000270017,Battery Park City-Lower Manhattan                                          
BMW,67 Wall Street,,New York,NY,10005,27-17,Shopping,S-Cars,MANHATTAN,40.705749,-74.008342,1,1,7,1000829,1000270017,Battery Park City-Lower Manhattan                                          
Tumi,67 Wall Street,,New York,NY,10005,27-17,Shopping,S-Leather & Luggage,MANHATTAN,40.705749,-74.008342,1,1,7,1000829,1000270017,Battery Park City-Lower Manhattan                                          
Crumbs Bakeshop,87 Beaver Street,,New York,NY,,27-17,Casual Eating & Takeout,F-Bakery,,,,,,,,,
US Post Office-Hanover Finance Station,1 Hanover Street,,New York,NY,10005,27-9,Community Resources,C-Post Office,MANHATTAN,40.705939,-74.00884,1,1,7,1000828,1000270009,Battery Park City-Lower Manhattan                                          
Thomas Pink,63 Wall Street,,New York,NY,,27-9,Shopping,S-Apparel: Men's,,,,,,,,,
La Maison du Chocolat,63 Wall Street,,New York,NY,10005,27-9,Shopping,S-Candy & Chocolate,MANHATTAN,40.705843,-74.008516,1,1,7,1000828,1000270009,Battery Park City-Lower Manhattan                                          
Yorganic,3 Hanover Square,,New York,NY,10004,28-1,Casual Eating & Takeout,F-Health,,,,,,,,,
Hanover Gourmet Deli,3 Hanover Square,,New York,NY,10004,28-1,Casual Eating & Takeout,F-Deli,,,,,,,,,
Ray's Jewelry,3 Hanover Square,,New York,NY,10004,28-1,Shopping,S-Jeweler,,,,,,,,,
Taste of Tokyo,60 Beaver Street,,New York,NY,10004,28-1,Full Service Dining,F-Japanese,MANHATTAN,40.705165,-74.009839,1,1,7,1000831,1000280001,Battery Park City-Lower Manhattan                                          
Joseph's Restaurant,3 Hanover Square,,New York,NY,10005,28-1,Full Service Dining,F-Italian,,,,,,,,,
George's Hair Styling,60 Beaver Street,,New York,NY,10004,28-1,Personal and Professional Services,P-Hair Salon & Barber Shop,MANHATTAN,40.705165,-74.009839,1,1,7,1000831,1000280001,Battery Park City-Lower Manhattan                                          
Leonidas Belgian Chocolates,3 Hanover Square,,New York,NY,10004,28-1,Shopping,S-Candy & Chocolate,,,,,,,,,
Underground Pizza,3 Hanover Square,,New York,NY,10004,28-1,Casual Eating & Takeout,F-Pizza,,,,,,,,,
Leo's Bagels,3 Hanover Square,,New York,NY,10004,28-1,Casual Eating & Takeout,F-Bagels,,,,,,,,,
Cafe Bravo,11 Hanover Square,,New York,NY,10005,28-12,Casual Eating & Takeout,F-Deli,,,,,,,,,
Killarney Rose Garden,80 Beaver Street,,New York,NY,10005,28-15,Full Service Dining,F-Irish Pub,MANHATTAN,40.705346,-74.008692,1,1,7,1000834,1000280015,Battery Park City-Lower Manhattan                                          
Haru,1 Wall Street Court,,New York,NY,10005,28-17,Full Service Dining,F-Japanese,,,,,,,,,
Fino Wall Street,1 Wall Street Court,,New York,NY,10005,28-17,Full Service Dining,F-Italian,,,,,,,,,
The UPS Store,5 Hanover Square,,New York,NY,10004,28-5,Personal and Professional Services,P-Packaging/Shipping,,,,,,,,,
Cafe Hanover,5 Hanover Square,,New York,NY,10005,28-5,Casual Eating & Takeout,F-Cafe & Eatery,,,,,,,,,
Barclay-Rex,75 Broad Street,,New York,NY,10004,29-1,Shopping,S-Cigars,MANHATTAN,40.704487,-74.011556,1,1,9,1000849,1000290070,Battery Park City-Lower Manhattan                                          
New Golden Chopsticks,77 Pearl Street,,New York,NY,10004,29-22,Casual Eating & Takeout,F-Chinese,MANHATTAN,40.703954,-74.010297,1,1,9,1000836,1000290022,Battery Park City-Lower Manhattan                                          
Bingo Deli,77 Pearl Street,1st Floor,New York,NY,10004,29-22,Casual Eating & Takeout,F-Deli,MANHATTAN,40.703954,-74.010297,1,1,9,1000836,1000290022,Battery Park City-Lower Manhattan                                          
Terrace Fish & Chip,77 Pearl Street,,New York,NY,10004,29-22,Casual Eating & Takeout,F-Seafood,MANHATTAN,40.703954,-74.010297,1,1,9,1000836,1000290022,Battery Park City-Lower Manhattan                                          
Ruben's Empanadas,77 Pearl Street,,New York,NY,10004,29-22,Casual Eating & Takeout,F-Argentinian,MANHATTAN,40.703954,-74.010297,1,1,9,1000836,1000290022,Battery Park City-Lower Manhattan                                          
Pizza Pizza NYC,77 Pearl Street,,New York,NY,10004,29-22,Casual Eating & Takeout,F-Pizza,MANHATTAN,40.703954,-74.010297,1,1,9,1000836,1000290022,Battery Park City-Lower Manhattan                                          
Burger Burger,77 Pearl Street,,New York,NY,10004,29-22,Casual Eating & Takeout,F-Fast Food,MANHATTAN,40.703954,-74.010297,1,1,9,1000836,1000290022,Battery Park City-Lower Manhattan                                          
Waterstone Grill,79 Pearl Street,,New York,NY,10004,29-23,Full Service Dining,F-American,MANHATTAN,40.703987,-74.01025,1,1,9,1000837,1000290023,Battery Park City-Lower Manhattan                                          
Beckett's,81 Pearl Street,,New York,NY,10004,29-24,Full Service Dining,F-Restaurant & Bar,MANHATTAN,40.704023,-74.0102,1,1,9,1000838,1000290024,Battery Park City-Lower Manhattan                                          
Mad Dog & Beans,83 Pearl Street,,New York,NY,10004,29-25,Full Service Dining,F-Mexican,MANHATTAN,40.704056,-74.010153,1,1,9,1078964,1000290025,Battery Park City-Lower Manhattan                                          
Stone Street Tavern,52 Stone Street,,New York,NY,10004,29-27,Full Service Dining,F-Restaurant & Bar,MANHATTAN,40.704399,-74.010225,1,1,9,1077219,1000290026,Battery Park City-Lower Manhattan                                          
Adrienne's Pizza Bar,54 Stone Street,,New York,NY,10004,29-27,Full Service Dining,F-Pizza,MANHATTAN,40.704415,-74.010203,1,1,9,1000000,1000297504,Battery Park City-Lower Manhattan                                          
Harry's Cafe/Harry's Steak,1 Hanover Square,,New York,NY,10004,29-33,Full Service Dining,F-Steak,MANHATTAN,40.704646,-74.009608,1,1,9,1000841,1000297502,Battery Park City-Lower Manhattan                                          
Bayard's,1 Hanover Square,,New York,NY,10004,29-33,Casual Eating & Takeout,F-Catering,MANHATTAN,40.704646,-74.009608,1,1,9,1000841,1000297502,Battery Park City-Lower Manhattan                                          
Ulysses',95 Pearl Street,,New York,NY,10004,29-33,Casual Eating & Takeout,F-Seafood,MANHATTAN,40.704259,-74.009861,1,1,9,1000841,1000297502,Battery Park City-Lower Manhattan                                          
Financier Patisserie,62 Stone Street,,New York,NY,10004,29-33,Casual Eating & Takeout,F-Bakery,MANHATTAN,40.704574,-74.010012,1,1,9,1000841,1000297502,Battery Park City-Lower Manhattan                                          
Vintry Wine & Whiskey,57 Stone Street,,New York,NY,10004,29-45,Full Service Dining,F-Wine Bar,MANHATTAN,40.704443,-74.0102,1,1,9,1000843,1000290045,Battery Park City-Lower Manhattan                                          
Royal Wine Merchants,13 South William Street,,New York,NY,10004,29-45,Shopping,S-Liquor Store,MANHATTAN,40.704638,-74.01051,1,1,9,1000843,1000290045,Battery Park City-Lower Manhattan                                          
Smorgas Chef,53 Stone Street,,New York,NY,10004,29-47,Full Service Dining,F-Scandinavian,MANHATTAN,40.704407,-74.010247,1,1,9,1000845,1000290047,Battery Park City-Lower Manhattan                                          
Crepes Du Nord,17 South William Street,,New York,NY,10004,29-47,Full Service Dining,F-French,MANHATTAN,40.704572,-74.010622,1,1,9,1000845,1000290047,Battery Park City-Lower Manhattan                                          
The Dubliner,45 Stone Street,,New York,NY,10004,29-49,Full Service Dining,F-Restaurant & Bar,MANHATTAN,40.704338,-74.01034,1,1,9,1087244,1000297503,Battery Park City-Lower Manhattan                                          
Wong's Custom Tailor,28 South William Street,,New York,NY,10004,29-70,Personal and Professional Services,P-Tailoring,MANHATTAN,40.704421,-74.010997,1,1,9,1000849,1000290070,Battery Park City-Lower Manhattan                                          
Wachovia ATM,75 Broad Street,,New York,NY,10004,29-70,Personal and Professional Services,P-Banks and Check Cashing,MANHATTAN,40.704487,-74.011556,1,1,9,1000849,1000290070,Battery Park City-Lower Manhattan                                          
Duane Reade,75 Broad Street,,New York,NY,10004,29-70,Shopping,S-Drugstores,MANHATTAN,40.704487,-74.011556,1,1,9,1000849,1000290070,Battery Park City-Lower Manhattan                                          
Delmonico's Steakhouse,56 Beaver Street,,New York,NY,10004,29-82,Full Service Dining,F-Steak,MANHATTAN,40.705115,-74.010286,1,1,9,1078999,1000297501,Battery Park City-Lower Manhattan                                          
Best Shoe Repair,48 Beaver Street,,New York,NY,10004,29-82,Personal and Professional Services,P-Shoe Repair/Shine,MANHATTAN,40.70509,-74.010607,1,1,9,1078997,1000297501,Battery Park City-Lower Manhattan                                          
Barber Shop,48 Beaver Street,,New York,NY,10004,29-82,Personal and Professional Services,P-Hair Salon & Barber Shop,MANHATTAN,40.70509,-74.010607,1,1,9,1078997,1000297501,Battery Park City-Lower Manhattan                                          
Diwan E. Khaas,26 South William Street,,New York,NY,10004,29-86,Casual Eating & Takeout,F-Indian,MANHATTAN,40.704498,-74.010809,1,1,9,1000851,1000290086,Battery Park City-Lower Manhattan                                          
No. 1 Little House,10 South William Street,,New York,NY,10004,29-86,Full Service Dining,F-Chinese,MANHATTAN,40.704671,-74.010488,1,1,9,1000851,1000290086,Battery Park City-Lower Manhattan                                          
Oggi Hair Salon & Nail Spa,2 Coenties Slip,,New York,NY,10004,30-1,Personal and Professional Services,P-Hair Salon & Barber Shop,MANHATTAN,40.703636,-74.010589,1,1,9,1079001,1000300001,Battery Park City-Lower Manhattan                                          
L'Atelier Des Fleurs Floral & Event Design,74 Pearl Street,,New York,NY,10004,30-1,Shopping,S-Florist,MANHATTAN,40.703784,-74.01051,1,1,9,1079001,1000300001,Battery Park City-Lower Manhattan                                          
Eastern Newsstands,7 Hanover Square,,New York,NY,10005,30-19,Personal and Professional Services,P-Newsstands,MANHATTAN,40.70447,-74.009406,1,1,9,1000855,1000300019,Battery Park City-Lower Manhattan                                          
L & M Pearl Cleaners,7 Hanover Square,,New York,NY,10004,30-19,Personal and Professional Services,P-Dry Cleaning,MANHATTAN,40.70447,-74.009406,1,1,9,1000855,1000300019,Battery Park City-Lower Manhattan                                          
Diamond's Hallmark,7 Hanover Square,,New York,NY,10004,30-19,Shopping,"S-Gifts, Cards & Stationery",MANHATTAN,40.70447,-74.009406,1,1,9,1000855,1000300019,Battery Park City-Lower Manhattan                                          
Esther's Shoe Repair,7 Hanover Square,,New York,NY,10004,30-19,Personal and Professional Services,P-Shoe Repair/Shine,MANHATTAN,40.70447,-74.009406,1,1,9,1000855,1000300019,Battery Park City-Lower Manhattan                                          
Optical Insight,7 Hanover Square,,New York,NY,10004,30-19,Shopping,S-Glasses & Sunglasses,MANHATTAN,40.70447,-74.009406,1,1,9,1000855,1000300019,Battery Park City-Lower Manhattan                                          
Mark Wilkinson Furniture,7 Hanover Square,,New York,NY,10004,30-19,Shopping,S-Home Furnishings & Decor,MANHATTAN,40.70447,-74.009406,1,1,9,1000855,1000300019,Battery Park City-Lower Manhattan                                          
Myoptics Opticians,7 Hanover Square,,New York,NY,10004,30-19,Shopping,S-Glasses & Sunglasses,MANHATTAN,40.70447,-74.009406,1,1,9,1000855,1000300019,Battery Park City-Lower Manhattan                                          
Pearl Hairstyling Salon,76 Pearl Street,,New York,NY,10004,30-3,Personal and Professional Services,P-Hair Salon & Barber Shop,MANHATTAN,40.703907,-74.010333,1,1,9,1000852,1000300003,Battery Park City-Lower Manhattan                                          
Nu Sushi,76 Pearl Street,,New York,NY,10004,30-3,Casual Eating & Takeout,F-Japanese,MANHATTAN,40.703907,-74.010333,1,1,9,1000852,1000300003,Battery Park City-Lower Manhattan                                          
Da Vinci Pizza,44 Water Street,,New York,NY,10004,30-32,Casual Eating & Takeout,F-Pizza,MANHATTAN,40.703468,-74.01003,1,1,9,1000856,1000300032,Battery Park City-Lower Manhattan                                          
All American Water Street Deli,42 Water Street,,New York,NY,,30-33,Casual Eating & Takeout,F-Deli,,,,,,,,,
AT&T,40 Water Street,,New York,NY,10004,30-34,Shopping,S-Cellular Phones,MANHATTAN,40.703397,-74.010149,1,1,9,1000858,1000300034,Battery Park City-Lower Manhattan                                          
King's Custom Tailoring,40 Water Street,,New York,NY,10004,30-34,Personal and Professional Services,P-Tailoring,MANHATTAN,40.703397,-74.010149,1,1,9,1000858,1000300034,Battery Park City-Lower Manhattan                                          
Fresco on the Go,114 Pearl Street,,New York,NY,10005,31-1,Casual Eating & Takeout,F-Continental,MANHATTAN,40.704638,-74.009251,1,1,7,1000859,1000310001,Battery Park City-Lower Manhattan                                          
The Original Soupman,110 Pearl Street,,New York,NY,10005,31-1,Casual Eating & Takeout,F-Soup,MANHATTAN,40.704572,-74.009363,1,1,7,1000859,1000310001,Battery Park City-Lower Manhattan                                          
Apple Bank for Savings,10 Hanover Square,,New York,NY,10005,31-1,Personal and Professional Services,P-Banks and Check Cashing,MANHATTAN,40.704328,-74.00923,1,1,7,1000859,1000310001,Battery Park City-Lower Manhattan                                          
Starbucks Coffee,110 Pearl Street,,New York,NY,10005,31-1,Casual Eating & Takeout,F-Coffeehouse,MANHATTAN,40.704572,-74.009363,1,1,7,1000859,1000310001,Battery Park City-Lower Manhattan                                          
Mercantile Grill,126 Pearl Street,,New York,NY,10005,31-10,Full Service Dining,F-American,MANHATTAN,40.704926,-74.00875,1,1,7,1000860,1000310010,Battery Park City-Lower Manhattan                                          
Bar Seven Five,75 Wall Street,,New York,NY,10005,31-11,Nightlife,N-Bar,MANHATTAN,40.705486,-74.007874,1,1,7,1085950,1000317501,Battery Park City-Lower Manhattan                                          
Wall & Water,75 Wall Street,,New York,NY,10005,31-11,Full Service Dining,F-American,MANHATTAN,40.705486,-74.007874,1,1,7,1085950,1000317501,Battery Park City-Lower Manhattan                                          
Chase Bank,55 Water Street,,New York,NY,10041,32-7501,Personal and Professional Services,P-Banks and Check Cashing,MANHATTAN,40.703597,-74.009781,1,1,9,1083346,1000327501,Battery Park City-Lower Manhattan                                          
Downtown Manhattan Candy Store,77 Water Street,,New York,NY,10005,33-1,Shopping,S-Candy & Chocolate,MANHATTAN,40.704275,-74.008681,1,1,7,1000863,1000330001,Battery Park City-Lower Manhattan                                          
Duane Reade,95 Wall Street,,New York,NY,10005,33-11,Shopping,S-Drugstores,,,,,,,,,
Bolton's,95 Wall Street,,New York,NY,10005,33-11,Shopping,S-Apparel: Women's,,,,,,,,,
T-Mobile,99 Wall Street,,New York,NY,10005,33-22,Shopping,S-Cellular Phones,MANHATTAN,40.705,-74.007156,1,1,7,1000865,1000337501,Battery Park City-Lower Manhattan                                          
"Kamlesh, Inc.",111 Wall Street,,New York,NY,10005,35-10,Personal and Professional Services,P-Newsstands,MANHATTAN,40.704553,-74.006636,1,1,7,1000868,1000350010,Battery Park City-Lower Manhattan                                          
Koodo Sushi,55 Liberty Street,,New York,NY,10005,37-23,Full Service Dining,F-Japanese,MANHATTAN,40.708692,-74.009508,1,1,1502,1001084,1000640008,Battery Park City-Lower Manhattan                                          
FedEx,110 Wall Street,,New York,NY,10005,37-8,Personal and Professional Services,P-Packaging/Shipping,MANHATTAN,40.704638,-74.006694,1,1,7,1000872,1000370008,Battery Park City-Lower Manhattan                                          
Verizon Wireless,100 Wall Street,,New York,NY,10005,38-1,Shopping,S-Cellular Phones,MANHATTAN,40.70497,-74.007084,1,1,7,1000875,1000380001,Battery Park City-Lower Manhattan                                          
Starbucks Coffee,100 Wall Street,,New York,NY,10005,38-1,Casual Eating & Takeout,F-Coffeehouse,MANHATTAN,40.70497,-74.007084,1,1,7,1000875,1000380001,Battery Park City-Lower Manhattan                                          
Fed Ex Kinko's,100 Wall Street,,New York,NY,10005,38-1,Personal and Professional Services,P-Copy and Printing Services,MANHATTAN,40.70497,-74.007084,1,1,7,1000875,1000380001,Battery Park City-Lower Manhattan                                          
Apple Bank for Savings,88 Pine Street,,New York,NY,10005,38-17,Personal and Professional Services,P-Banks and Check Cashing,MANHATTAN,40.70536,-74.00629,1,1,7,1000876,1000380017,Battery Park City-Lower Manhattan                                          
AT&T,82 Wall Street,,New York,NY,10038,39-1,Shopping,S-Cellular Phones,MANHATTAN,40.705415,-74.007729,1,1,7,1000877,1000390001,Battery Park City-Lower Manhattan                                          
Hirsute Salon,82 Wall Street,,New York,NY,10005,39-1,Personal and Professional Services,P-Hair Salon & Barber Shop,MANHATTAN,40.705415,-74.007729,1,1,7,1000877,1000390001,Battery Park City-Lower Manhattan                                          
Pine Street Nuts & Candy,79 Pine Street,,New York,NY,10005,39-1001,Shopping,S-Candy & Chocolate,MANHATTAN,40.705931,-74.007275,1,1,7,1000884,1000397501,Battery Park City-Lower Manhattan                                          
Wall Street Wine Merchant,79 Pine Street,,New York,NY,10005,39-1001,Shopping,S-Liquor Store,MANHATTAN,40.705931,-74.007275,1,1,7,1000884,1000397501,Battery Park City-Lower Manhattan                                          
Shinju Sushi,164 Pearl Street,,New York,NY,10005,39-1001,Casual Eating & Takeout,F-Japanese,MANHATTAN,40.70587,-74.007617,1,1,7,1000884,1000397501,Battery Park City-Lower Manhattan                                          
Cafe Water,130 Water Street,,New York,NY,10038,39-1001,Casual Eating & Takeout,F-Deli,MANHATTAN,40.705522,-74.006929,1,1,7,1000884,1000397501,Battery Park City-Lower Manhattan                                          
Lane Jewelers,79 Pine Street,,New York,NY,10005,39-1001,Shopping,S-Jeweler,MANHATTAN,40.705931,-74.007275,1,1,7,1000884,1000397501,Battery Park City-Lower Manhattan                                          
Rose Hair Salon,79 Pine Street,,New York,NY,,39-1001,Personal and Professional Services,P-Hair Salon & Barber Shop,,,,,,,,,
Pine Street Cleaners,164 Pearl Street,,New York,NY,10005,39-1001,Personal and Professional Services,P-Dry Cleaning,MANHATTAN,40.70587,-74.007617,1,1,7,1000884,1000397501,Battery Park City-Lower Manhattan                                          
Telestar Locksmiths II,79 Pine Street,,New York,NY,10005,39-1001,Personal and Professional Services,P-Hardware & Locksmiths,MANHATTAN,40.705931,-74.007275,1,1,7,1000884,1000397501,Battery Park City-Lower Manhattan                                          
Vietnamese Sandwiches,164 Pearl Street,,New York,NY,10005,39-1001,Casual Eating & Takeout,F-Vietnamese,MANHATTAN,40.70587,-74.007617,1,1,7,1000884,1000397501,Battery Park City-Lower Manhattan                                          
The Mailroom,79 Pine Street,,New York,NY,10005,39-1001,Personal and Professional Services,P-Packaging/Shipping,MANHATTAN,40.705931,-74.007275,1,1,7,1000884,1000397501,Battery Park City-Lower Manhattan                                          
Au Bon Pain,80 Pine Street,,New York,NY,10005,39-12,Casual Eating & Takeout,F-Cafe & Eatery,MANHATTAN,40.705892,-74.007181,1,1,7,1000880,1000390012,Battery Park City-Lower Manhattan                                          
Starbucks Coffee,80 Pine Street,,New York,NY,10005,39-12,Casual Eating & Takeout,F-Coffeehouse,MANHATTAN,40.705892,-74.007181,1,1,7,1000880,1000390012,Battery Park City-Lower Manhattan                                          
Flowers of the World,80 Pine Street,,New York,NY,10005,39-12,Shopping,S-Florist,MANHATTAN,40.705892,-74.007181,1,1,7,1000880,1000390012,Battery Park City-Lower Manhattan                                          
Hale and Hearty Soup,110 Maiden Lane,,New York,NY,10005,39-12,Casual Eating & Takeout,F-Soup,MANHATTAN,40.7066,-74.006633,1,1,7,1000880,1000390012,Battery Park City-Lower Manhattan                                          
The Pump,80 Pine Street,,New York,NY,10005,39-12,Casual Eating & Takeout,F-Health,MANHATTAN,40.705892,-74.007181,1,1,7,1000880,1000390012,Battery Park City-Lower Manhattan                                          
Cafe Wall Street,80 Wall Street,,New York,NY,10005,39-4,Casual Eating & Takeout,F-Deli,MANHATTAN,40.705456,-74.007794,1,1,7,1000878,1000390004,Battery Park City-Lower Manhattan                                          
Niko Niko Sushi & Bowl,80 Wall Street,,New York,NY,10005,39-4,Casual Eating & Takeout,F-Japanese,MANHATTAN,40.705456,-74.007794,1,1,7,1000878,1000390004,Battery Park City-Lower Manhattan                                          
Subway,122 Water Street,,New York,NY,10005,39-40,Casual Eating & Takeout,F-Fast Food,MANHATTAN,40.705343,-74.007181,1,1,7,1000882,1000390040,Battery Park City-Lower Manhattan                                          
Sprint,120 Water Street,,New York,NY,10005,39-41,Shopping,S-Cellular Phones,MANHATTAN,40.705299,-74.007242,1,1,7,1000883,1000390041,Battery Park City-Lower Manhattan                                          
Trinity Smoke,160 Pearl Street,,New York,NY,10005,39-6,Shopping,S-Cigars,MANHATTAN,40.705769,-74.007718,1,1,7,1000879,1000390006,Battery Park City-Lower Manhattan                                          
The Full Shilling,160 Pearl Street,,New York,NY,10005,39-6,Full Service Dining,F-Irish Pub,MANHATTAN,40.705769,-74.007718,1,1,7,1000879,1000390006,Battery Park City-Lower Manhattan                                          
Museum of American Finance Gift Shop,48 Wall Street,,New York,NY,10004,40-1,Shopping,"S-Gifts, Cards & Stationery",MANHATTAN,40.706331,-74.009396,1,1,7,1001005,1000400014,Battery Park City-Lower Manhattan                                          
William's Restaurant & Bar,52 William Street,,New York,NY,10005,40-16,Full Service Dining,F-Restaurant & Bar,MANHATTAN,40.706773,-74.009143,1,1,7,1001006,1000400016,Battery Park City-Lower Manhattan                                          
Martin News,60 Wall Street,Atrium,New York,NY,10005,40-3,Personal and Professional Services,P-Newsstands,MANHATTAN,40.705914,-74.008609,1,1,7,1001004,1000400003,Battery Park City-Lower Manhattan                                          
Country Cafe,60 Wall Street,Atrium,New York,NY,10005,40-3,Casual Eating & Takeout,F-Cafe & Eatery,MANHATTAN,40.705914,-74.008609,1,1,7,1001004,1000400003,Battery Park City-Lower Manhattan                                          
Le Glacier,60 Wall Street,Atrium,New York,NY,10005,40-3,Casual Eating & Takeout,F-Coffeehouse,MANHATTAN,40.705914,-74.008609,1,1,7,1001004,1000400003,Battery Park City-Lower Manhattan                                          
Cobbler Express,60 Wall Street,,New York,NY,10005,40-3,Personal and Professional Services,P-Shoe Repair/Shine,MANHATTAN,40.705914,-74.008609,1,1,7,1001004,1000400003,Battery Park City-Lower Manhattan                                          
The Ketch,181 Pearl Street,,New York,NY,10270,41-1,Full Service Dining,F-Seafood,MANHATTAN,40.706268,-74.00725,1,1,7,1001007,1000417504,Battery Park City-Lower Manhattan                                          
Gift Works Boutique,70 Pine Street,,New York,NY,10270,41-1,Shopping,S-Jeweler,MANHATTAN,40.706315,-74.007895,1,1,7,1001007,1000417504,Battery Park City-Lower Manhattan                                          
Country Bakery Cafe,70 Pine Street,,New York,NY,10270,41-1,Casual Eating & Takeout,F-Cafe & Eatery,MANHATTAN,40.706315,-74.007895,1,1,7,1001007,1000417504,Battery Park City-Lower Manhattan                                          
Ise Japanese Restaurant,56 Pine Street,,New York,NY,10005,41-19,Full Service Dining,F-Japanese,MANHATTAN,40.706606,-74.008404,1,1,7,1001009,1000417503,Battery Park City-Lower Manhattan                                          
Diwan E. Khaas,26 Cedar Street,,New York,NY,10005,41-19,Casual Eating & Takeout,F-Indian,MANHATTAN,40.706965,-74.008072,1,1,7,1001009,1000417503,Battery Park City-Lower Manhattan                                          
Taz Cafe,54 Pine Street,,New York,NY,10005,41-20,Casual Eating & Takeout,F-Deli,MANHATTAN,40.706647,-74.008476,1,1,7,1001010,1000417502,Battery Park City-Lower Manhattan                                          
Koyzina Kafe,62 William Street,,New York,NY,10005,41-24,Casual Eating & Takeout,F-Cafe & Eatery,MANHATTAN,40.707166,-74.008793,1,1,7,1001013,1000410024,Battery Park City-Lower Manhattan                                          
Yip's Oriental Express,32 Cedar Street,Lower Level,New York,NY,10005,41-24,Casual Eating & Takeout,F-Chinese,MANHATTAN,40.707078,-74.008249,1,1,7,1001013,1000410024,Battery Park City-Lower Manhattan                                          
HSBC,100 Maiden Lane,,New York,NY,10038,42-1,Personal and Professional Services,P-Banks and Check Cashing,MANHATTAN,40.706867,-74.00699,1,1,7,1001014,1000420001,Battery Park City-Lower Manhattan                                          
Chipotle,100 Maiden Lane,,New York,NY,10038,42-1,Casual Eating & Takeout,F-Mexican,MANHATTAN,40.706867,-74.00699,1,1,7,1001014,1000420001,Battery Park City-Lower Manhattan                                          
Subway,100 Maiden Lane,,New York,NY,10038,42-1,Casual Eating & Takeout,F-Fast Food,MANHATTAN,40.706867,-74.00699,1,1,7,1001014,1000420001,Battery Park City-Lower Manhattan                                          
Dunkin Donuts,100 Maiden Lane,,New York,NY,10038,42-1,Casual Eating & Takeout,F-Fast Food,MANHATTAN,40.706867,-74.00699,1,1,7,1001014,1000420001,Battery Park City-Lower Manhattan                                          
Just Salad,100 Maiden Lane,,New York,NY,10038,42-1,Casual Eating & Takeout,F-Health,MANHATTAN,40.706867,-74.00699,1,1,7,1001014,1000420001,Battery Park City-Lower Manhattan                                          
Financier Patisserie,35 Cedar Street,,New York,NY,10005,42-22,Casual Eating & Takeout,F-Bakery,MANHATTAN,40.707166,-74.008353,1,1,7,1086256,1000420022,Battery Park City-Lower Manhattan                                          
Liberatos Pizza,17 Cedar Street,,New York,NY,10038,42-31,Casual Eating & Takeout,F-Pizza,MANHATTAN,40.706828,-74.007823,1,1,7,1001015,1000420031,Battery Park City-Lower Manhattan                                          
Duane Reade,80 Maiden Lane,,New York,NY,10038,42-31,Shopping,S-Drugstores,MANHATTAN,40.707116,-74.007329,1,1,7,1001015,1000420031,Battery Park City-Lower Manhattan                                          
Dijon,80 Maiden Lane,,New York,NY,10038,42-31,Shopping,S-Apparel: Women's,MANHATTAN,40.707116,-74.007329,1,1,7,1001015,1000420031,Battery Park City-Lower Manhattan                                          
Divesh News,80 Maiden Lane,Lobby,New York,NY,10038,42-31,Personal and Professional Services,P-Newsstands,MANHATTAN,40.707116,-74.007329,1,1,7,1001015,1000420031,Battery Park City-Lower Manhattan                                          
Koyzina Grill,25 Cedar Street,,New York,NY,10005,42-31,Casual Eating & Takeout,F-American,MANHATTAN,40.706976,-74.008058,1,1,7,1001015,1000420031,Battery Park City-Lower Manhattan                                          
Kafe Neo,80 Maiden Lane,,New York,NY,10038,42-31,Casual Eating & Takeout,F-Cafe & Eatery,MANHATTAN,40.707116,-74.007329,1,1,7,1001015,1000420031,Battery Park City-Lower Manhattan                                          
Gristedes Supermarket,90 Maiden Lane,,New York,NY,10038,42-36,Shopping,F-Supermarket,MANHATTAN,40.70699,-74.00716,1,1,7,1001016,1000420036,Battery Park City-Lower Manhattan                                          
"S.M.S. Industries, Inc.",80 Maiden Lane,,New York,NY,10038,42-36,Personal and Professional Services,P-Messengers,MANHATTAN,40.707116,-74.007329,1,1,7,1001015,1000420031,Battery Park City-Lower Manhattan                                          
Duane Reade,45 Pine Street,,New York,NY,10005,43-1,Shopping,S-Drugstores,MANHATTAN,40.707048,-74.00919,1,1,7,1000000,1000430001,Battery Park City-Lower Manhattan                                          
NCIC Computer Consulting,44 Wall Street,,New York,NY,10005,43-1,Personal and Professional Services,P-Computer Services,MANHATTAN,40.70654,-74.009738,1,1,7,1001017,1000430001,Battery Park City-Lower Manhattan                                          
Kenjo Jewelers,40 Wall Street,,New York,NY,10005,43-2,Shopping,S-Jeweler,MANHATTAN,40.706625,-74.009875,1,1,7,1001018,1000430002,Battery Park City-Lower Manhattan                                          
New York Sports Club,30 Wall Street,,New York,NY,10005,43-5,Personal and Professional Services,P-Athletic Clubs/Fitness,MANHATTAN,40.706839,-74.010218,1,1,7,1001019,1000430005,Battery Park City-Lower Manhattan                                          
Chase Bank,1 Chase Manhattan Plaza,Lower Level,New York,NY,10005,44-1,Personal and Professional Services,P-Banks and Check Cashing,,,,,,,,,
Wall Street Shoe,1 Chase Manhattan Plaza,,New York,NY,,44-1,Personal and Professional Services,P-Shoe Repair/Shine,,,,,,,,,
TD Bank,2 Wall Street,,New York,NY,10005,46-1,Personal and Professional Services,P-Banks and Check Cashing,MANHATTAN,40.707725,-74.011632,1,1,7,1001023,1000460001,Battery Park City-Lower Manhattan                                          
Border's Books and Music,100 Broadway,,New York,NY,10005,46-3,Shopping,S-Bookstores,MANHATTAN,40.70814,-74.011373,1,1,7,1001024,1000460003,Battery Park City-Lower Manhattan                                          
14 Wall Street Jewelers,14 Wall Street,2nd Floor,New York,NY,10005,46-9,Shopping,S-Jeweler,MANHATTAN,40.707347,-74.010997,1,1,7,1001025,1000460009,Battery Park City-Lower Manhattan                                          
Shiv Supplies,14 Wall Street,Lobby,New York,NY,,46-9,Personal and Professional Services,P-Newsstands,,,,,,,,,
Equinox Fitness Club,14 Wall Street,,New York,NY,10005,46-9,Personal and Professional Services,P-Athletic Clubs/Fitness,MANHATTAN,40.707347,-74.010997,1,1,7,1001025,1000460009,Battery Park City-Lower Manhattan                                          
True Religion Brand Jeans,14 Wall Street,,New York,NY,10005,46-9,Shopping,S-Apparel: Men's & Women's,MANHATTAN,40.707347,-74.010997,1,1,7,1001025,1000460009,Battery Park City-Lower Manhattan                                          
Equitable Hairstylist,120 Broadway,Lower Level,New York,NY,10271,47-1,Personal and Professional Services,P-Hair Salon & Barber Shop,MANHATTAN,40.708546,-74.011041,1,1,7,1001026,1000477501,Battery Park City-Lower Manhattan                                          
Valley National Bank,120 Broadway,,New York,NY,10271,47-1,Personal and Professional Services,P-Banks and Check Cashing,MANHATTAN,40.708546,-74.011041,1,1,7,1001026,1000477501,Battery Park City-Lower Manhattan                                          
Ashby's,120 Broadway,,New York,NY,10271,47-1,Casual Eating & Takeout,F-Deli,MANHATTAN,40.708546,-74.011041,1,1,7,1001026,1000477501,Battery Park City-Lower Manhattan                                          
HSBC,120 Broadway,,New York,NY,10271,47-1,Personal and Professional Services,P-Banks and Check Cashing,MANHATTAN,40.708546,-74.011041,1,1,7,1001026,1000477501,Battery Park City-Lower Manhattan                                          
Little Lads Basket Cafe,120 Broadway,Lower Level,New York,NY,,47-1,Casual Eating & Takeout,F-Vegetarian,,,,,,,,,
Harry & Son Shoe Shine,120 Broadway,Lower Arcade,New York,NY,10271,47-1,Personal and Professional Services,P-Shoe Repair/Shine,MANHATTAN,40.708546,-74.011041,1,1,7,1001026,1000477501,Battery Park City-Lower Manhattan                                          
Manon Cafe,120 Broadway,,New York,NY,10271,47-1,Casual Eating & Takeout,F-Coffeehouse,MANHATTAN,40.708546,-74.011041,1,1,7,1001026,1000477501,Battery Park City-Lower Manhattan                                          
Travel Network,120 Broadway,,New York,NY,10271,47-1,Personal and Professional Services,P-Travel Agency,MANHATTAN,40.708546,-74.011041,1,1,7,1001026,1000477501,Battery Park City-Lower Manhattan                                          
Eastern Newsstand,120 Broadway,Lobby,New York,NY,10271,47-1,Personal and Professional Services,P-Newsstands,MANHATTAN,40.708546,-74.011041,1,1,7,1001026,1000477501,Battery Park City-Lower Manhattan                                          
Charles Patrick Jewelers,120 Broadway,Lobby,New York,NY,10271,47-1,Shopping,S-Jeweler,MANHATTAN,40.708546,-74.011041,1,1,7,1001026,1000477501,Battery Park City-Lower Manhattan                                          
The Capital Grille,120 Broadway,,New York,NY,10271,47-1,Full Service Dining,F-Steak,MANHATTAN,40.708546,-74.011041,1,1,7,1001026,1000477501,Battery Park City-Lower Manhattan                                          
Citibank,120 Broadway,,New York,NY,10271,47-7501,Personal and Professional Services,P-Banks and Check Cashing,MANHATTAN,40.708546,-74.011041,1,1,7,1001026,1000477501,Battery Park City-Lower Manhattan                                          
Gateway Newstand,140 Broadway,Lobby,New York,NY,10005,48-1,Personal and Professional Services,P-Newsstands,MANHATTAN,40.709043,-74.010626,1,1,7,1001027,1000480001,Battery Park City-Lower Manhattan                                          
American Express Travel Service,111 Broadway,,New York,NY,10006,49-2,Personal and Professional Services,P-Travel Agency,MANHATTAN,40.708486,-74.011113,1,1,13,1001029,1000490002,Battery Park City-Lower Manhattan                                          
Suspenders Restaurant,111 Broadway,,New York,NY,10006,49-2,Full Service Dining,F-Restaurant & Bar,MANHATTAN,40.708486,-74.011113,1,1,13,1001029,1000490002,Battery Park City-Lower Manhattan                                          
John Allan's Men's Club,95 Trinity Place,,New York,NY,10006,49-2,Personal and Professional Services,P-Spa,MANHATTAN,40.708807,-74.012256,1,1,13,1001029,1000490002,Battery Park City-Lower Manhattan                                          
Subway,111 Broadway,,New York,NY,10006,49-2,Casual Eating & Takeout,F-Fast Food,MANHATTAN,40.708486,-74.011113,1,1,13,1001029,1000490002,Battery Park City-Lower Manhattan                                          
Panini & Company,115 Broadway,,New York,NY,10006,50-1,Casual Eating & Takeout,F-Cafe & Eatery,MANHATTAN,40.708631,-74.010997,1,1,13,1001030,1000500001,Battery Park City-Lower Manhattan                                          
Men's Wearhouse,115 Broadway,,New York,NY,10006,50-1,Shopping,S-Apparel: Men's,MANHATTAN,40.708631,-74.010997,1,1,13,1001030,1000500001,Battery Park City-Lower Manhattan                                          
Big Apple Copy,115 Broadway,Lower Level,New York,NY,10006,50-1,Personal and Professional Services,P-Copy and Printing Services,MANHATTAN,40.708631,-74.010997,1,1,13,1001030,1000500001,Battery Park City-Lower Manhattan                                          
Starbucks Coffee,115 Broadway,,New York,NY,10006,50-1,Casual Eating & Takeout,F-Coffeehouse,MANHATTAN,40.708631,-74.010997,1,1,13,1001030,1000500001,Battery Park City-Lower Manhattan                                          
Stanley's Cobbler Shop,11 Thames Street,,New York,NY,10006,50-1,Personal and Professional Services,P-Shoe Repair/Shine,MANHATTAN,40.709013,-74.011921,1,1,13,1001030,1000500001,Battery Park City-Lower Manhattan                                          
Big Al's Pizza,9 Thames Street,,New York,NY,10006,50-1,Casual Eating & Takeout,F-Pizza,MANHATTAN,40.708947,-74.011769,1,1,13,1001030,1000500001,Battery Park City-Lower Manhattan                                          
Trinity Place,115 Broadway,,New York,NY,10006,50-1,Full Service Dining,F-American,MANHATTAN,40.708631,-74.010997,1,1,13,1001030,1000500001,Battery Park City-Lower Manhattan                                          
Ketki Lobby Shop,2 Rector Street,Lobby,New York,NY,10006,51-1,Personal and Professional Services,P-Newsstands,MANHATTAN,40.707808,-74.013053,1,1,13,1001031,1000510001,Battery Park City-Lower Manhattan                                          
Greenwich Jewelers,64 Trinity Place,,New York,NY,10006,51-1,Shopping,S-Jeweler,MANHATTAN,40.708173,-74.012707,1,1,13,1001031,1000510001,Battery Park City-Lower Manhattan                                          
One Way Gift Shop,66 Trinity Place,,New York,NY,10006,51-1,Shopping,"S-Gifts, Cards & Stationery",MANHATTAN,40.708217,-74.012678,1,1,13,1001031,1000510001,Battery Park City-Lower Manhattan                                          
Masterpiece Pizza,2 Rector Street,,New York,NY,10006,51-1,Casual Eating & Takeout,F-Pizza,MANHATTAN,40.707808,-74.013053,1,1,13,1001031,1000510001,Battery Park City-Lower Manhattan                                          
Variety Market,2 Rector Street,,New York,NY,10006,51-1,Casual Eating & Takeout,F-Deli,MANHATTAN,40.707808,-74.013053,1,1,13,1001031,1000510001,Battery Park City-Lower Manhattan                                          
City Blossoms,62 Trinity Place,,New York,NY,10006,51-1,Shopping,S-Florist,MANHATTAN,40.708131,-74.012736,1,1,13,1001031,1000510001,Battery Park City-Lower Manhattan                                          
Steven Brown Caterers,74 Trinity Place,2nd Floor,New York,NY,10006,51-17,Casual Eating & Takeout,F-Catering,MANHATTAN,40.708387,-74.012563,1,1,13,1001036,1000510007,Battery Park City-Lower Manhattan                                          
Manon Cafe,74 Trinity Place,,New York,NY,10006,51-17,Casual Eating & Takeout,F-Coffeehouse,MANHATTAN,40.708387,-74.012563,1,1,13,1001036,1000510007,Battery Park City-Lower Manhattan                                          
World Trade Art Gallery,74 Trinity Place,,New York,NY,10006,51-17,Shopping,"S-Framing, Posters & Art Supplies",MANHATTAN,40.708387,-74.012563,1,1,13,1001036,1000510007,Battery Park City-Lower Manhattan                                          
Stapleton Shoe Company,68 Trinity Place,,New York,NY,10006,51-7,Shopping,S-Shoes: Men's,MANHATTAN,40.708258,-74.012649,1,1,13,1001032,1000510007,Battery Park City-Lower Manhattan                                          
O'Hara's Restaurant,120 Cedar Street,,New York,NY,10006,52-10,Full Service Dining,F-Restaurant & Bar,MANHATTAN,40.709644,-74.012711,1,1,13,1001038,1000520010,Battery Park City-Lower Manhattan                                          
Ruchi,120 Cedar Street,,New York,NY,10006,52-10,Full Service Dining,F-Indian,MANHATTAN,40.709644,-74.012711,1,1,13,1001038,1000520010,Battery Park City-Lower Manhattan                                          
Steve's Pizza,110 Trinity Place,,New York,NY,10006,52-15,Casual Eating & Takeout,F-Pizza,MANHATTAN,40.709501,-74.011813,1,1,13,1001039,1000520015,Battery Park City-Lower Manhattan                                          
J Spa Nails,110 Trinity Place,2nd Floor,New York,NY,10006,52-15,Personal and Professional Services,P-Nail Salon,MANHATTAN,40.709501,-74.011813,1,1,13,1001039,1000520015,Battery Park City-Lower Manhattan                                          
Charly's,110 Trinity Place,,New York,NY,10006,52-15,Casual Eating & Takeout,F-American,MANHATTAN,40.709501,-74.011813,1,1,13,1001039,1000520015,Battery Park City-Lower Manhattan                                          
NY Souvenir,114 Liberty Street,,New York,NY,10006,52-25,Shopping,"S-Gifts, Cards & Stationery",MANHATTAN,40.709938,-74.012235,1,1,13,1001041,1000527502,Battery Park City-Lower Manhattan                                          
Pronto Pizza,114 Liberty Street,,New York,NY,10006,52-25,Casual Eating & Takeout,F-Pizza,MANHATTAN,40.709938,-74.012235,1,1,13,1001041,1000527502,Battery Park City-Lower Manhattan                                          
Ho Yip Chinese Restaurant,110 Liberty Street,,New York,NY,10006,52-29,Casual Eating & Takeout,F-Chinese,MANHATTAN,40.709885,-74.012116,1,1,13,1001042,1000527501,Battery Park City-Lower Manhattan                                          
DJ Hair Salon,110 Liberty Street,Lower Level,New York,NY,10006,52-29,Personal and Professional Services,P-Hair Salon & Barber Shop,MANHATTAN,40.709885,-74.012116,1,1,13,1001042,1000527501,Battery Park City-Lower Manhattan                                          
Burger King,106 Liberty Street,,New York,NY,10006,52-30,Casual Eating & Takeout,F-Fast Food,MANHATTAN,40.709831,-74.012,1,1,13,1001043,1000520030,Battery Park City-Lower Manhattan                                          
Essex World Cafe,112 Liberty Street,,New York,NY,10006,52-7501,Casual Eating & Takeout,F-Cafe & Eatery,MANHATTAN,40.70991,-74.012177,1,1,13,1001042,1000527501,Battery Park City-Lower Manhattan                                          
Se Ja Meh,114 Greenwich Street,,New York,NY,10006,53-28,Full Service Dining,F-Korean,MANHATTAN,40.708798,-74.013245,1,1,13,1001050,1000537501,Battery Park City-Lower Manhattan                                          
Moran's,103 Washington Street,,New York,NY,10006,53-3,Full Service Dining,F-American,MANHATTAN,40.708458,-74.01428,1,1,13,1001045,1000530003,Battery Park City-Lower Manhattan                                          
Trinity Boxing Club NYC,110 Greenwich Street,,New York,NY,10006,53-33,Personal and Professional Services,P-Athletic Clubs/Fitness,MANHATTAN,40.70856,-74.013349,1,1,13,1001051,1000530033,Battery Park City-Lower Manhattan                                          
Caracello Ristorante,108 Greenwich Street,,New York,NY,10006,53-35,Full Service Dining,F-Italian,MANHATTAN,40.708499,-74.013374,1,1,13,1001052,1000530035,Battery Park City-Lower Manhattan                                          
Rector Dry Cleaners,106 Greenwich Street,,New York,NY,10006,53-36,Personal and Professional Services,P-Dry Cleaning,MANHATTAN,40.708442,-74.0134,1,1,13,1001053,1000530036,Battery Park City-Lower Manhattan                                          
Subway,106 Greenwich Street,,New York,NY,10006,53-36,Casual Eating & Takeout,F-Fast Food,MANHATTAN,40.708442,-74.0134,1,1,13,1001053,1000530036,Battery Park City-Lower Manhattan                                          
Thunder Lingerie,100 Greenwich Street,,New York,NY,10006,53-38,Shopping,S-Adult Novelties,MANHATTAN,40.708263,-74.013475,1,1,13,1001055,1000530038,Battery Park City-Lower Manhattan                                          
Joe's Gourmet,98 Greenwich Street,,New York,NY,10006,53-38,Casual Eating & Takeout,F-Deli,MANHATTAN,40.708203,-74.013501,1,1,13,1001055,1000530038,Battery Park City-Lower Manhattan                                          
Pussycat Lounge,96 Greenwich Street,,New York,NY,10006,53-39,Nightlife,N-Adult Entertainment,MANHATTAN,40.708142,-74.013526,1,1,13,1001056,1000530039,Battery Park City-Lower Manhattan                                          
Cordato's,94 1/2 Greenwich Street,,New York,NY,10006,53-40,Casual Eating & Takeout,F-Deli,MANHATTAN,40.708085,-74.013551,1,1,13,1001057,1000530040,Battery Park City-Lower Manhattan                                          
Cafe Bravo,94 Greenwich Street,,New York,NY,10006,53-41,Casual Eating & Takeout,F-Deli,MANHATTAN,40.708085,-74.013551,1,1,13,1001058,1000530041,Battery Park City-Lower Manhattan                                          
Budtharasa Thai Food,109 Washington Street,,New York,NY,10006,53-6,Casual Eating & Takeout,F-Thai,MANHATTAN,40.708623,-74.014218,1,1,13,1001047,1000530006,Battery Park City-Lower Manhattan                                          
85 West Sports Bar & Grill,New York Marriot Financial Center Hotel,85 West Street,New York,NY,10006,55-16,Full Service Dining,F-Restaurant & Bar,,,,,,,,,
Gift Shop,85 West Street,New York Marriott World Financial Center,New York,NY,10006,55-16,Shopping,"S-Gifts, Cards & Stationery",MANHATTAN,40.709646,-74.014875,1,1,13,1001061,1000550016,Battery Park City-Lower Manhattan                                          
Brooks Brothers,1 Church Street,,New York,NY,10006,62-1,Shopping,S-Apparel: Men's & Women's,MANHATTAN,40.709787,-74.011596,1,1,13,1001068,1000627501,Battery Park City-Lower Manhattan                                          
Century 21 Department Stores,10 Cortlandt Street,,New York,NY,10007,63-1,Shopping,S-Shoes: Men's,MANHATTAN,40.710028,-74.01046,1,1,13,1078966,1000630001,Battery Park City-Lower Manhattan                                          
Joseph Tailor Shop,7 Dey Street,Suite 401,New York,NY,10007,63-12,Personal and Professional Services,P-Tailoring,MANHATTAN,40.710624,-74.009955,1,1,13,1001071,1000630012,Battery Park City-Lower Manhattan                                          
Arome,5 Dey Street,,New York,NY,10007,63-12,Casual Eating & Takeout,F-Deli,MANHATTAN,40.71058,-74.009862,1,1,13,1001071,1000630012,Battery Park City-Lower Manhattan                                          
Payless Shoesource,187 Broadway,,New York,NY,10007,63-15,Shopping,S-Shoes: Men's & Women's,MANHATTAN,40.71021,-74.009656,1,1,13,1001073,1000630015,Battery Park City-Lower Manhattan                                          
Pylones,183 Broadway,,New York,NY,10007,63-16,Shopping,"S-Gifts, Cards & Stationery",MANHATTAN,40.710119,-74.009735,1,1,13,1001074,1000630016,Battery Park City-Lower Manhattan                                          
Tropp Printing Corp.,181 Broadway,4th Floor,New York,NY,10007,63-17,Personal and Professional Services,P-Copy and Printing Services,MANHATTAN,40.710072,-74.009775,1,1,13,1001075,1000630017,Battery Park City-Lower Manhattan                                          
V.I.P. Men's Suits,181 Broadway,2nd Floor,New York,NY,10007,63-17,Shopping,S-Apparel: Men's,MANHATTAN,40.710072,-74.009775,1,1,13,1001075,1000630017,Battery Park City-Lower Manhattan                                          
Hallmark Gold Crown,181 Broadway,,New York,NY,10007,63-17,Shopping,"S-Gifts, Cards & Stationery",MANHATTAN,40.710072,-74.009775,1,1,13,1001075,1000630017,Battery Park City-Lower Manhattan                                          
Century 21 Department Stores - Ladies Shoes,175 Broadway,,New York,NY,10007,63-20,Shopping,S-Shoes: Women's,MANHATTAN,40.709935,-74.00989,1,1,13,1001078,1000630020,Battery Park City-Lower Manhattan                                          
TSC Training Academy,2 Cortlandt Street,2nd Floor,New York,NY,10007,63-21,Personal and Professional Services,P-Other,MANHATTAN,40.709897,-74.010168,1,1,13,1001079,1000630021,Battery Park City-Lower Manhattan                                          
Bento Nouveau Sushi,173 Broadway,,New York,NY,10007,63-21,Casual Eating & Takeout,F-Japanese,MANHATTAN,40.709888,-74.00993,1,1,13,1001079,1000630021,Battery Park City-Lower Manhattan                                          
Michal Golan,4 Cortlandt Street,,New York,NY,10007,63-21,Shopping,S-Jeweler,MANHATTAN,40.70993,-74.01024,1,1,13,1001079,1000630021,Battery Park City-Lower Manhattan                                          
Cortlandt News,6 Cortlandt Street,,New York,NY,10007,63-21,Personal and Professional Services,P-Newsstands,MANHATTAN,40.709962,-74.010316,1,1,13,1001079,1000630021,Battery Park City-Lower Manhattan                                          
Olga's Salon Spa,2 Cortlandt Street,,New York,NY,10006,63-21,Personal and Professional Services,P-Spa,MANHATTAN,40.709897,-74.010168,1,1,13,1001079,1000630021,Battery Park City-Lower Manhattan                                          
Dunkin Donuts,2 Cortlandt Street,,New York,NY,10007,63-21,Casual Eating & Takeout,F-Fast Food,MANHATTAN,40.709897,-74.010168,1,1,13,1001079,1000630021,Battery Park City-Lower Manhattan                                          
Majestic Pizza,8 Cortlandt Street,,New York,NY,10007,63-21,Casual Eating & Takeout,F-Pizza,MANHATTAN,40.709995,-74.010388,1,1,13,1001079,1000630021,Battery Park City-Lower Manhattan                                          
21 Jewelry,2A Cortlandt Street,,New York,NY,10007,63-21,Shopping,S-Jeweler,MANHATTAN,40.709897,-74.010168,1,1,13,1001079,1000630021,Battery Park City-Lower Manhattan                                          
Century 21 Department Stores,22 Cortlandt Street,,New York,NY,10007,63-3,Shopping,S-Apparel: Men's & Women's,MANHATTAN,40.710223,-74.010897,1,1,13,1001069,1000630003,Battery Park City-Lower Manhattan                                          
Federal Cafe,20 Maiden Lane,,New York,NY,10038,64-1,Full Service Dining,F-Italian,MANHATTAN,40.709252,-74.0091,1,1,1502,1079033,1000640001,Battery Park City-Lower Manhattan                                          
Sephora,150 Broadway,,New York,NY,10038,64-12,Shopping,S-Beauty & Fragrances,MANHATTAN,40.70932,-74.010392,1,1,1502,1001087,1000640012,Battery Park City-Lower Manhattan                                          
Bank of America,150 Broadway,,New York,NY,10038,64-12,Personal and Professional Services,P-Banks and Check Cashing,MANHATTAN,40.70932,-74.010392,1,1,1502,1001087,1000640012,Battery Park City-Lower Manhattan                                          
Modell's,150 Broadway,,New York,NY,10038,64-12,Shopping,S-Sporting Goods & Athletic Wear,MANHATTAN,40.70932,-74.010392,1,1,1502,1001087,1000640012,Battery Park City-Lower Manhattan                                          
Showroom Hair Salon,160 Broadway,Lobby,New York,NY,,64-15,Personal and Professional Services,P-Hair Salon & Barber Shop,,,,,,,,,
"Adcomp Systems, Inc.",160 Broadway,,New York,NY,10038,64-15,Shopping,S-Computers & Electronics,MANHATTAN,40.709493,-74.01024,1,1,1502,1079040,1000640015,Battery Park City-Lower Manhattan                                          
McDonald's,160 Broadway,,New York,NY,10038,64-15,Casual Eating & Takeout,F-Fast Food,MANHATTAN,40.709493,-74.01024,1,1,1502,1079040,1000640015,Battery Park City-Lower Manhattan                                          
Broadway Kosher Cafe,160 Broadway,,New York,NY,10038,64-15,Casual Eating & Takeout,F-Kosher,MANHATTAN,40.709493,-74.01024,1,1,1502,1079040,1000640015,Battery Park City-Lower Manhattan                                          
Maiden Lane Wine & Liquor,6 Maiden Lane,,New York,NY,10038,64-15,Shopping,S-Liquor Store,MANHATTAN,40.709661,-74.009688,1,1,1502,1079037,1000640015,Battery Park City-Lower Manhattan                                          
DeNatale Jewelers,170 Broadway,Suite 205,New York,NY,,64-16,Shopping,S-Jeweler,,,,,,,,,
T-Mobile,170 Broadway,,New York,NY,10038,64-16,Shopping,S-Cellular Phones,MANHATTAN,40.709669,-74.010092,1,1,1502,1001088,1000640016,Battery Park City-Lower Manhattan                                          
Cafe Exchange,2 Maiden Lane,,New York,NY,10038,64-16,Casual Eating & Takeout,F-Deli,MANHATTAN,40.709737,-74.009851,1,1,1502,1001088,1000640016,Battery Park City-Lower Manhattan                                          
Sprint,170 Broadway,,New York,NY,10038,64-16,Shopping,S-Cellular Phones,MANHATTAN,40.709669,-74.010092,1,1,1502,1001088,1000640016,Battery Park City-Lower Manhattan                                          
22 Thai Cuisine,22 Maiden Lane,,New York,NY,10038,64-2,Casual Eating & Takeout,F-Thai,MANHATTAN,40.709194,-74.009046,1,1,1502,1001080,1000640002,Battery Park City-Lower Manhattan                                          
Alfanoose Restaurant,8 Maiden Lane,,New York,NY,10038,64-20,Casual Eating & Takeout,F-Middle Eastern,MANHATTAN,40.709619,-74.009609,1,1,1502,1001089,1000640020,Battery Park City-Lower Manhattan                                          
Sushi a La kawa,18 Maiden Lane,,New York,NY,10038,64-24,Casual Eating & Takeout,F-Japanese,MANHATTAN,40.709378,-74.009248,1,1,1502,1001092,1000640024,Battery Park City-Lower Manhattan                                          
Win Won Chinese,10 Liberty Place,,New York,NY,10038,64-25,Casual Eating & Takeout,F-Chinese,MANHATTAN,40.709092,-74.009338,1,1,1502,1001093,1000640025,Battery Park City-Lower Manhattan                                          
Jou Jou Cafe,55 Nassau Street,,New York,NY,10038,64-4,Casual Eating & Takeout,F-Cafe & Eatery,MANHATTAN,40.709021,-74.008934,1,1,1502,1001081,1000640004,Battery Park City-Lower Manhattan                                          
Elysium Hair Salon,24 Maiden Lane,,New York,NY,10038,64-4,Personal and Professional Services,P-Hair Salon & Barber Shop,MANHATTAN,40.709136,-74.008989,1,1,1502,1001081,1000640004,Battery Park City-Lower Manhattan                                          
Ann's Nails,24 Maiden Lane,2nd Floor,New York,NY,10038,64-4,Personal and Professional Services,P-Nail Salon,MANHATTAN,40.709136,-74.008989,1,1,1502,1001081,1000640004,Battery Park City-Lower Manhattan                                          
55 Nassau Shoe Repair,55 Nassau Street,,New York,NY,10038,64-4,Personal and Professional Services,P-Shoe Repair/Shine,MANHATTAN,40.709021,-74.008934,1,1,1502,1001081,1000640004,Battery Park City-Lower Manhattan                                          
Diwan E. Khaas,53 Nassau Street,,New York,NY,10038,64-6,Casual Eating & Takeout,F-Indian,MANHATTAN,40.708974,-74.008985,1,1,1502,1001082,1000640005,Battery Park City-Lower Manhattan                                          
The Greene Grape,55 Liberty Street,,New York,NY,10005,64-8,Shopping,S-Liquor Store,MANHATTAN,40.708692,-74.009508,1,1,1502,1001084,1000640008,Battery Park City-Lower Manhattan                                          
Pound & Pence,55 Liberty Street,,New York,NY,10005,64-8,Full Service Dining,F-Restaurant & Bar,MANHATTAN,40.708692,-74.009508,1,1,1502,1001084,1000640008,Battery Park City-Lower Manhattan                                          
101 Newsstand,47 Nassau Street,,New York,NY,10038,64-8,Personal and Professional Services,P-Newsstands,MANHATTAN,40.708821,-74.009158,1,1,1502,1001084,1000640008,Battery Park City-Lower Manhattan                                          
Starbucks Coffee,55 Liberty Street,,New York,NY,10005,64-8,Casual Eating & Takeout,F-Coffeehouse,MANHATTAN,40.708692,-74.009508,1,1,1502,1001084,1000640008,Battery Park City-Lower Manhattan                                          
Maiden Heaven Gourmet,9-11 Maiden Lane,,New York,NY,10038,65-10,Casual Eating & Takeout,F-Deli,MANHATTAN,40.709606,-74.009555,1,1,1502,1001098,1000650010,Battery Park City-Lower Manhattan                                          
Baoguette,9 Maiden Lane,,New York,NY,10038,65-10,Casual Eating & Takeout,F-Vietnamese,MANHATTAN,40.709606,-74.009555,1,1,1502,1001098,1000650010,Battery Park City-Lower Manhattan                                          
Daniella Helene,28 John Street,,New York,NY,10038,65-1001,Personal and Professional Services,P-Hair Salon & Barber Shop,MANHATTAN,40.709685,-74.00865,1,1,1502,1001106,1000657501,Battery Park City-Lower Manhattan                                          
Health King,65 Nassau Street,,New York,NY,10038,65-1001,Casual Eating & Takeout,F-Health,MANHATTAN,40.70935,-74.00861,1,1,1502,1001106,1000657501,Battery Park City-Lower Manhattan                                          
JD Candy News,65 Nassau Street,,New York,NY,10038,65-1001,Personal and Professional Services,P-Newsstands,MANHATTAN,40.70935,-74.00861,1,1,1502,1001106,1000657501,Battery Park City-Lower Manhattan                                          
The Tie Gallery,30 John Street,,New York,NY,10038,65-1001,Shopping,S-Apparel: Men's,MANHATTAN,40.709644,-74.008595,1,1,1502,1001106,1000657501,Battery Park City-Lower Manhattan                                          
Golden Nugget Jewelers,67 Nassau Street,,New York,NY,10038,65-1001,Shopping,S-Jeweler,MANHATTAN,40.709405,-74.008552,1,1,1502,1001106,1000657501,Battery Park City-Lower Manhattan                                          
The Vitamin Shoppe,174 Broadway,,New York,NY,10038,65-16,Shopping,S-Nutrition & Health,MANHATTAN,40.70988,-74.009912,1,1,1502,1001099,1000650016,Battery Park City-Lower Manhattan                                          
Downtown Eyebrow Threading,5 Maiden Lane,,New York,NY,,65-17,Personal and Professional Services,P-Eyebrows,,,,,,,,,
Capital One Bank,176 Broadway,,New York,NY,10038,65-17,Personal and Professional Services,P-Banks and Check Cashing,MANHATTAN,40.709932,-74.009869,1,1,1502,1001100,1000650017,Battery Park City-Lower Manhattan                                          
Chameleon Comics,3 Maiden Lane,,New York,NY,10038,65-17,Shopping,S-Bookstores,MANHATTAN,40.709718,-74.009768,1,1,1502,1001100,1000650017,Battery Park City-Lower Manhattan                                          
Tower Art Gallery,7 Maiden Lane,,New York,NY,10038,65-17,Shopping,"S-Framing, Posters & Art Supplies",MANHATTAN,40.709647,-74.009623,1,1,1502,1001100,1000650017,Battery Park City-Lower Manhattan                                          
William Barthman Jewelers,176 Broadway,,New York,NY,10038,65-17,Shopping,S-Jeweler,MANHATTAN,40.709932,-74.009869,1,1,1502,1001100,1000650017,Battery Park City-Lower Manhattan                                          
"Digi Prints, Inc.",176 Broadway,,New York,NY,10038,65-17,Personal and Professional Services,P-Film Developing,MANHATTAN,40.709932,-74.009869,1,1,1502,1001100,1000650017,Battery Park City-Lower Manhattan                                          
Cafe Toda,180 Broadway,,New York,NY,10038,65-18,Casual Eating & Takeout,F-Deli,MANHATTAN,40.710037,-74.009779,1,1,1502,1001102,1000657502,Battery Park City-Lower Manhattan                                          
S&M Universal Jewelery,2 John Street,,New York,NY,10038,65-19,Shopping,S-Jeweler,MANHATTAN,40.710201,-74.009382,1,1,1502,1001102,1000657502,Battery Park City-Lower Manhattan                                          
Tokyo Lunch,10 John Street,,New York,NY,10038,65-19,Casual Eating & Takeout,F-Japanese,MANHATTAN,40.710042,-74.009158,1,1,1502,1001102,1000657502,Battery Park City-Lower Manhattan                                          
Discount Fragrances,2 John Street,,New York,NY,10038,65-19,Shopping,S-Beauty & Fragrances,MANHATTAN,40.710201,-74.009382,1,1,1502,1001102,1000657502,Battery Park City-Lower Manhattan                                          
Burger King,182 Broadway,Lower Level,New York,NY,10038,65-19,Casual Eating & Takeout,F-Fast Food,MANHATTAN,40.710089,-74.009735,1,1,1502,1001102,1000657502,Battery Park City-Lower Manhattan                                          
Easy Spirit,182 Broadway,,New York,NY,10007,65-19,Shopping,S-Shoes: Women's,MANHATTAN,40.710089,-74.009735,1,1,1502,1001102,1000657502,Battery Park City-Lower Manhattan                                          
Harry's Convenience Store,2 John Street,,New York,NY,,65-19,Personal and Professional Services,P-Newsstands,,,,,,,,,
5 Star Gift Shop,65 Nassau Street,,New York,NY,10038,65-2,Shopping,S-Beauty & Fragrances,MANHATTAN,40.70935,-74.00861,1,1,1502,1001106,1000657501,Battery Park City-Lower Manhattan                                          
Nu Way Shoe Repair,12 John Street,,New York,NY,10038,65-20,Personal and Professional Services,P-Shoe Repair/Shine,MANHATTAN,40.710004,-74.0091,1,1,1502,1001103,1000650020,Battery Park City-Lower Manhattan                                          
Cellular Plus,12 John Street,,New York,NY,10038,65-20,Shopping,S-Cellular Phones,MANHATTAN,40.710004,-74.0091,1,1,1502,1001103,1000650020,Battery Park City-Lower Manhattan                                          
Maggies Cajun,12 John Street,,New York,NY,10038,65-20,Casual Eating & Takeout,F-Cajun,MANHATTAN,40.710004,-74.0091,1,1,1502,1001103,1000650020,Battery Park City-Lower Manhattan                                          
It's A Pizza,20 John Street,,New York,NY,10038,65-22,Casual Eating & Takeout,F-Pizza,MANHATTAN,40.709845,-74.008877,1,1,1502,1001104,1000650022,Battery Park City-Lower Manhattan                                          
Roxy Coffee Shop,20 John Street,,New York,NY,10038,65-22,Full Service Dining,F-Diner,MANHATTAN,40.709845,-74.008877,1,1,1502,1001104,1000650022,Battery Park City-Lower Manhattan                                          
Mini Centro,59 Nassau Street,,New York,NY,10038,65-4,Shopping,S-Shoes: Women's,MANHATTAN,40.70918,-74.008776,1,1,1502,1001095,1000650004,Battery Park City-Lower Manhattan                                          
Jacob's Shoe Repair,25 Maiden Lane,,New York,NY,10038,65-4,Personal and Professional Services,P-Shoe Repair/Shine,MANHATTAN,40.709145,-74.00897,1,1,1502,1001095,1000650004,Battery Park City-Lower Manhattan                                          
Candy Nail Salon,25 Maiden Lane,2nd Floor,New York,NY,10038,65-4,Personal and Professional Services,P-Nail Salon,MANHATTAN,40.709145,-74.00897,1,1,1502,1001095,1000650004,Battery Park City-Lower Manhattan                                          
Friendly Gourmet Pizza,59 Nassau Street,,New York,NY,10038,65-4,Casual Eating & Takeout,F-Pizza,MANHATTAN,40.70918,-74.008776,1,1,1502,1001095,1000650004,Battery Park City-Lower Manhattan                                          
Sunrise Cleaners,59 Nassau Street,,New York,NY,10038,65-4,Personal and Professional Services,P-Dry Cleaning,MANHATTAN,40.70918,-74.008776,1,1,1502,1001095,1000650004,Battery Park City-Lower Manhattan                                          
Hana,59 Nassau Street,,New York,NY,10038,65-4,Full Service Dining,F-Chinese,MANHATTAN,40.70918,-74.008776,1,1,1502,1001095,1000650004,Battery Park City-Lower Manhattan                                          
Natalie,59 Nassau Street,,New York,NY,10038,65-4,Shopping,S-Apparel: Women's,MANHATTAN,40.70918,-74.008776,1,1,1502,1001095,1000650004,Battery Park City-Lower Manhattan                                          
Papa John's Pizza,21 Maiden Lane,,New York,NY,10038,65-6,Casual Eating & Takeout,F-Pizza,MANHATTAN,40.70926,-74.009082,1,1,1502,1001096,1000650006,Battery Park City-Lower Manhattan                                          
Subway,21 Maiden Lane,,New York,NY,10038,65-6,Casual Eating & Takeout,F-Fast Food,MANHATTAN,40.70926,-74.009082,1,1,1502,1001096,1000650006,Battery Park City-Lower Manhattan                                          
Atlantic Bank of New York,15 Maiden Lane,,New York,NY,10038,65-7,Personal and Professional Services,P-Banks and Check Cashing,MANHATTAN,40.709482,-74.009356,1,1,1502,1001097,1000650007,Battery Park City-Lower Manhattan                                          
G.D. Jewelry,15 Maiden Lane,,New York,NY,10038,65-7,Shopping,S-Jeweler,MANHATTAN,40.709482,-74.009356,1,1,1502,1001097,1000650007,Battery Park City-Lower Manhattan                                          
Aerosoles,18 John Street,,New York,NY,10038,65-7,Shopping,S-Shoes: Women's,MANHATTAN,40.709883,-74.008931,1,1,1502,1001097,1000650007,Battery Park City-Lower Manhattan                                          
Optima Beauty Supply,22 John Street,,New York,NY,10038,65-7,Shopping,S-Beauty & Fragrances,MANHATTAN,40.709803,-74.008819,1,1,1502,1001097,1000650007,Battery Park City-Lower Manhattan                                          
Zeytuna,59 Maiden Lane,,New York,NY,10006,67-1,Shopping,F-Supermarket,MANHATTAN,40.708266,-74.008231,1,1,1502,1079043,1000670001,Battery Park City-Lower Manhattan                                          
Godiva Chocolatier,33 Maiden Lane,,New York,NY,10038,67-23,Shopping,S-Candy & Chocolate,MANHATTAN,40.708807,-74.008678,1,1,1502,1001109,1000670023,Battery Park City-Lower Manhattan                                          
Cohen's Fashion Optical,33 Maiden Lane,,New York,NY,10038,67-23,Shopping,S-Glasses & Sunglasses,MANHATTAN,40.708807,-74.008678,1,1,1502,1001109,1000670023,Battery Park City-Lower Manhattan                                          
American Greetings Store,33 Maiden Lane,,New York,NY,10038,67-23,Shopping,"S-Gifts, Cards & Stationery",MANHATTAN,40.708807,-74.008678,1,1,1502,1001109,1000670023,Battery Park City-Lower Manhattan                                          
KK Hair Salon,75 Maiden Lane,,New York,NY,10038,68-11,Personal and Professional Services,P-Hair Salon & Barber Shop,MANHATTAN,40.707657,-74.007758,1,1,1502,1001112,1000680011,Battery Park City-Lower Manhattan                                          
CF Rutherford & Associates,75 Maiden Lane,Suite 1206,New York,NY,,68-11,Shopping,S-Office Supplies & Equipment,,,,,,,,,
KK Salon,75 Maiden Lane,,New York,NY,10004,68-11,Personal and Professional Services,P-Hair Salon & Barber Shop,MANHATTAN,40.707657,-74.007758,1,1,1502,1001112,1000680011,Battery Park City-Lower Manhattan                                          
Lane Cafe,75 Maiden Lane,,New York,NY,10038,68-11,Casual Eating & Takeout,F-Cafe & Eatery,MANHATTAN,40.707657,-74.007758,1,1,1502,1001112,1000680011,Battery Park City-Lower Manhattan                                          
Hana Nails,75 Maiden Lane,,New York,NY,10038,68-11,Personal and Professional Services,P-Nail Salon,MANHATTAN,40.707657,-74.007758,1,1,1502,1001112,1000680011,Battery Park City-Lower Manhattan                                          
Dick's Cut Rate Hardware Inc.,9 Gold Street,,New York,NY,10038,68-11,Personal and Professional Services,P-Hardware & Locksmiths,MANHATTAN,40.70755,-74.00708,1,1,1502,1001112,1000680011,Battery Park City-Lower Manhattan                                          
Jim Brady's,75 Maiden Lane,,New York,NY,10038,68-11,Full Service Dining,F-Restaurant & Bar,MANHATTAN,40.707657,-74.007758,1,1,1502,1001112,1000680011,Battery Park City-Lower Manhattan                                          
Taz Cafe,84 William Street,,New York,NY,10038,68-16,Casual Eating & Takeout,F-Deli,MANHATTAN,40.708028,-74.007939,1,1,1502,1001113,1000680016,Battery Park City-Lower Manhattan                                          
Lemongrass Grill,84 William Street,,New York,NY,10038,68-16,Full Service Dining,F-Thai,MANHATTAN,40.708028,-74.007939,1,1,1502,1001113,1000680016,Battery Park City-Lower Manhattan                                          
The Libertine,15 Gold Street,,New York,NY,10038,68-28,Full Service Dining,F-Continental,MANHATTAN,40.707753,-74.006918,1,1,1502,1085948,1000680028,Battery Park City-Lower Manhattan                                          
Complete Body Development,80 John Street,,New York,NY,10038,68-33,Personal and Professional Services,P-Athletic Clubs/Fitness,MANHATTAN,40.708445,-74.006886,1,1,1502,1001115,1000687501,Battery Park City-Lower Manhattan                                          
Tower Cleaners,80 John Street,Upper Level,New York,NY,10038,68-33,Personal and Professional Services,P-Dry Cleaning,MANHATTAN,40.708445,-74.006886,1,1,1502,1001115,1000687501,Battery Park City-Lower Manhattan                                          
John Street Florist,100 William Street,,New York,NY,10038,68-36,Shopping,S-Florist,MANHATTAN,40.708497,-74.007477,1,1,1502,1001116,1000680036,Battery Park City-Lower Manhattan                                          
Citibank,100 William Street,,New York,NY,10038,68-36,Personal and Professional Services,P-Banks and Check Cashing,MANHATTAN,40.708497,-74.007477,1,1,1502,1001116,1000680036,Battery Park City-Lower Manhattan                                          
Starbucks Coffee,100 William Street,,New York,NY,10038,68-36,Casual Eating & Takeout,F-Coffeehouse,MANHATTAN,40.708497,-74.007477,1,1,1502,1001116,1000680036,Battery Park City-Lower Manhattan                                          
Sleepy's,83 Maiden Lane,,New York,NY,10038,68-7,Shopping,S-Home Furnishings & Decor,MANHATTAN,40.707443,-74.007607,1,1,1502,1001111,1000680007,Battery Park City-Lower Manhattan                                          
La Petite Cave,83 Maiden Lane,,New York,NY,10038,68-7,Shopping,S-Liquor Store,MANHATTAN,40.707443,-74.007607,1,1,1502,1001111,1000680007,Battery Park City-Lower Manhattan                                          
Giardino D'oro,5 Gold Street,,New York,NY,10038,68-7,Full Service Dining,F-Italian,MANHATTAN,40.707424,-74.007206,1,1,1502,1001111,1000680007,Battery Park City-Lower Manhattan                                          
Swich,83 Maiden Lane,,New York,NY,10038,68-7,Casual Eating & Takeout,F-American,MANHATTAN,40.707443,-74.007607,1,1,1502,1001111,1000680007,Battery Park City-Lower Manhattan                                          
"Lee Custom Tailor, Inc.",75 Maiden Lane,Suite 217,New York,NY,10038,69-10,Personal and Professional Services,P-Tailoring,MANHATTAN,40.707657,-74.007758,1,1,1502,1001112,1000680011,Battery Park City-Lower Manhattan                                          
Sovereign Bank,2 Gold Street,,New York,NY,10038,69-18,Personal and Professional Services,P-Banks and Check Cashing,MANHATTAN,40.707295,-74.007336,1,1,1502,1087146,1000690018,Battery Park City-Lower Manhattan                                          
Harry's Italian,2 Gold Street,,New York,NY,10038,69-18,Full Service Dining,F-Italian,MANHATTAN,40.707295,-74.007336,1,1,1502,1087146,1000690018,Battery Park City-Lower Manhattan                                          
Downtown Dry Cleaner,116 John Street,,New York,NY,,69-32,Personal and Professional Services,P-Dry Cleaning,,,,,,,,,
Fulton Street Art Gallery Inc.,116 John Street,2nd Floor,New York,NY,10038,69-32,Shopping,"S-Framing, Posters & Art Supplies",MANHATTAN,40.707605,-74.00572,1,1,1502,1001126,1000690032,Battery Park City-Lower Manhattan                                          
Andrews Coffee Shop,116 John Street,,New York,NY,10038,69-32,Full Service Dining,F-Diner,MANHATTAN,40.707605,-74.00572,1,1,1502,1001126,1000690032,Battery Park City-Lower Manhattan                                          
MNS News,116 John Street,,New York,NY,10038,69-32,Personal and Professional Services,P-Newsstands,MANHATTAN,40.707605,-74.00572,1,1,1502,1001126,1000690032,Battery Park City-Lower Manhattan                                          
Bon Chon Chicken,104 John Street,,New York,NY,10038,69-51,Casual Eating & Takeout,F-Korean,MANHATTAN,40.707822,-74.005948,1,1,1502,1001129,1000690051,Battery Park City-Lower Manhattan                                          
Lenny's Deli,108 John Street,,New York,NY,10038,69-51,Casual Eating & Takeout,F-Deli,MANHATTAN,40.70775,-74.005872,1,1,1502,1001129,1000690051,Battery Park City-Lower Manhattan                                          
Cafe Sage,108 John Street,,New York,NY,10038,69-51,Casual Eating & Takeout,F-Thai,MANHATTAN,40.70775,-74.005872,1,1,1502,1001129,1000690051,Battery Park City-Lower Manhattan                                          
Open Door Gastropub,110 John Street,,New York,NY,10038,69-53,Full Service Dining,F-Restaurant & Bar,MANHATTAN,40.707712,-74.005836,1,1,1502,1001130,1000690053,Battery Park City-Lower Manhattan                                          
Angel Body Work,112 John Street,2nd Floor,New York,NY,10038,69-54,Personal and Professional Services,P-Spa,MANHATTAN,40.707676,-74.005796,1,1,1502,1001131,1000690054,Battery Park City-Lower Manhattan                                          
Subway,112 John Street,,New York,NY,10038,69-54,Casual Eating & Takeout,F-Fast Food,MANHATTAN,40.707676,-74.005796,1,1,1502,1001131,1000690054,Battery Park City-Lower Manhattan                                          
Goodburger,101 Maiden Lane,,New York,NY,10039,69-6,Casual Eating & Takeout,F-American,MANHATTAN,40.706963,-74.007091,1,1,1502,1087832,1000690006,Battery Park City-Lower Manhattan                                          
Pret A Manger,101 Maiden Lane,,New York,NY,10038,69-6,Casual Eating & Takeout,F-Cafe & Eatery,MANHATTAN,40.706963,-74.007091,1,1,1502,1087832,1000690006,Battery Park City-Lower Manhattan                                          
Crunch,90 John Street,Mezzanine Level,New York,NY,10038,69-7502,Personal and Professional Services,P-Athletic Clubs/Fitness,MANHATTAN,40.708173,-74.006464,1,1,1502,1001127,1000697502,Battery Park City-Lower Manhattan                                          
Nail 125,125 Maiden Lane,,New York,NY,10038,70-1,Personal and Professional Services,P-Nail Salon,MANHATTAN,40.706397,-74.006341,1,1,1502,1087484,1000707501,Battery Park City-Lower Manhattan                                          
Dress Barn,125 Maiden Lane,,New York,NY,10038,70-1,Shopping,S-Apparel: Women's,MANHATTAN,40.706397,-74.006341,1,1,1502,1087484,1000707501,Battery Park City-Lower Manhattan                                          
The Best of New York Food,150 Water Street,,New York,NY,10038,70-1,Casual Eating & Takeout,F-Deli,MANHATTAN,40.705997,-74.006243,1,1,7,1000880,1000390012,Battery Park City-Lower Manhattan                                          
Royal Barber Shop,95 Fulton Street,Subway,New York,NY,,93-1,Personal and Professional Services,P-Hair Salon & Barber Shop,,,,,,,,,
T-Mobile,125 Maiden Lane,,New York,NY,10038,70-1,Shopping,S-Cellular Phones,MANHATTAN,40.706397,-74.006341,1,1,1502,1087484,1000707501,Battery Park City-Lower Manhattan                                          
Marty's Photo & Electronics,125 Maiden Lane,,New York,NY,10038,70-1,Shopping,S-Camera & Film Supplies,MANHATTAN,40.706397,-74.006341,1,1,1502,1087484,1000707501,Battery Park City-Lower Manhattan                                          
Pearl Street Diner,212 Pearl Street,,New York,NY,10038,70-20,Full Service Dining,F-Diner,MANHATTAN,40.707009,-74.006377,1,1,1502,1001133,1000700020,Battery Park City-Lower Manhattan                                          
New York Sports Club,160 Water Street,,New York,NY,10038,70-43,Personal and Professional Services,P-Athletic Clubs/Fitness,MANHATTAN,40.706452,-74.005594,1,1,1502,1001135,1000700043,Battery Park City-Lower Manhattan                                          
Exquisite Creations,38 Water Street,,New York,NY,10004,7-1001,Shopping,S-Jeweler,MANHATTAN,40.70323,-74.010521,1,1,9,1077806,1000077501,Battery Park City-Lower Manhattan                                          
Burritoville,36 Water Street,,New York,NY,10004,7-1001,Casual Eating & Takeout,F-Mexican,MANHATTAN,40.703202,-74.010622,1,1,9,1077806,1000077501,Battery Park City-Lower Manhattan                                          
Zigolini's,66 Pearl Street,,New York,NY,10004,7-1001,Full Service Dining,F-American,MANHATTAN,40.703611,-74.010932,1,1,9,1077806,1000077501,Battery Park City-Lower Manhattan                                          
Chase Bank,155 Water Street,,New York,NY,10038,71-1,Personal and Professional Services,P-Banks and Check Cashing,MANHATTAN,40.706172,-74.005962,1,1,1502,1001136,1000710001,Battery Park City-Lower Manhattan                                          
Flavors Cafe,175 Water Street,,New York,NY,10038,71-25,Casual Eating & Takeout,F-Cafe & Eatery,MANHATTAN,40.706699,-74.005208,1,1,1502,1001137,1000717501,Battery Park City-Lower Manhattan                                          
Bank of America ATM,175 Water Street,,New York,NY,10038,71-25,Personal and Professional Services,P-Banks and Check Cashing,MANHATTAN,40.706699,-74.005208,1,1,1502,1001137,1000717501,Battery Park City-Lower Manhattan                                          
Carmine & Arthur's Clothier,175 Water Street,,New York,NY,10038,71-7501,Shopping,S-Apparel: Men's,MANHATTAN,40.706699,-74.005208,1,1,1502,1001137,1000717501,Battery Park City-Lower Manhattan                                          
Europa,1 Seaport Plaza,,New York,NY,10038,74-1001,Casual Eating & Takeout,F-Cafe & Eatery,,,,,,,,,
Galaxy Lobby Inc.,199 Water Street,,New York,NY,,74-7501,Personal and Professional Services,P-Newsstands,,,,,,,,,
Abercrombie & Fitch,199 Water Street,,New York,NY,10038,74-7501,Shopping,S-Apparel: Men's & Women's,MANHATTAN,40.70727,-74.004314,1,1,1502,1001162,1000747501,Battery Park City-Lower Manhattan                                          
WirelessRUS,200 Water Street,,New York,NY,10038,75-1,Shopping,S-Cellular Phones,MANHATTAN,40.707317,-74.004271,1,1,1502,1001163,1000750001,Battery Park City-Lower Manhattan                                          
NYC Check Express,200 Water Street,,New York,NY,10038,75-1,Personal and Professional Services,P-Banks and Check Cashing,MANHATTAN,40.707317,-74.004271,1,1,1502,1001163,1000750001,Battery Park City-Lower Manhattan                                          
Duane Reade,200 Water Street,,New York,NY,10038,75-1,Shopping,S-Drugstores,MANHATTAN,40.707317,-74.004271,1,1,1502,1001163,1000750001,Battery Park City-Lower Manhattan                                          
Plaza Deli,127 John Street,,New York,NY,,75-1,Casual Eating & Takeout,F-Deli,,,,,,,,,
"Blue & Red NY, Inc.",50 Fulton Street,,New York,NY,10038,75-1001,Shopping,"S-Gifts, Cards & Stationery",MANHATTAN,40.708236,-74.004696,1,1,1502,1001172,1000757501,Battery Park City-Lower Manhattan                                          
Seaport Jewelry,50 Fulton Street,,New York,NY,10038,75-1001,Shopping,S-Jeweler,MANHATTAN,40.708236,-74.004696,1,1,1502,1001172,1000757501,Battery Park City-Lower Manhattan                                          
Calderon News Store,50 Fulton Street,Front 2,New York,NY,10038,75-1001,Personal and Professional Services,P-Newsstands,MANHATTAN,40.708236,-74.004696,1,1,1502,1001172,1000757501,Battery Park City-Lower Manhattan                                          
Calderon Locksmith,50 Fulton Street,,New York,NY,10038,75-1001,Personal and Professional Services,P-Hardware & Locksmiths,MANHATTAN,40.708236,-74.004696,1,1,1502,1001172,1000757501,Battery Park City-Lower Manhattan                                          
Beta Coffee,50 Fulton Street,,New York,NY,10038,75-1001,Casual Eating & Takeout,F-Coffeehouse,MANHATTAN,40.708236,-74.004696,1,1,1502,1001172,1000757501,Battery Park City-Lower Manhattan                                          
Rainbow,40 Fulton Street,,New York,NY,10038,75-21,Shopping,S-Apparel: Women's,MANHATTAN,40.707904,-74.004411,1,1,1502,1075618,1000750021,Battery Park City-Lower Manhattan                                          
Avi Golan Hair Salon,111 John Street,,New York,NY,10038,75-30,Personal and Professional Services,P-Hair Salon & Barber Shop,MANHATTAN,40.707671,-74.005764,1,1,1502,1001167,1000750030,Battery Park City-Lower Manhattan                                          
Salon 25,111 John Street,,New York,NY,10038,75-30,Personal and Professional Services,P-Hair Salon & Barber Shop,MANHATTAN,40.707671,-74.005764,1,1,1502,1001167,1000750030,Battery Park City-Lower Manhattan                                          
Hard Copy Business Center,111 John Street,,New York,NY,10038,75-30,Personal and Professional Services,P-Copy and Printing Services,MANHATTAN,40.707671,-74.005764,1,1,1502,1001167,1000750030,Battery Park City-Lower Manhattan                                          
Backyard Chicken,241 Pearl Street,,New York,NY,10038,75-30,Casual Eating & Takeout,F-American,MANHATTAN,40.707484,-74.005252,1,1,1502,1001167,1000750030,Battery Park City-Lower Manhattan                                          
Cafe Gusto,111 John Street,,New York,NY,10038,75-30,Casual Eating & Takeout,F-Cafe & Eatery,MANHATTAN,40.707671,-74.005764,1,1,1502,1001167,1000750030,Battery Park City-Lower Manhattan                                          
Wall Street Caterers,241 Pearl Street,,New York,NY,10038,75-30,Casual Eating & Takeout,F-Catering,MANHATTAN,40.707484,-74.005252,1,1,1502,1001167,1000750030,Battery Park City-Lower Manhattan                                          
The Iron Horse,32 Cliff Street,,New York,NY,10038,75-46,Nightlife,N-Bar,MANHATTAN,40.708269,-74.005089,1,1,1502,1001170,1000750046,Battery Park City-Lower Manhattan                                          
McDonald's,52 Fulton Street,,New York,NY,10038,75-48,Casual Eating & Takeout,F-Fast Food,MANHATTAN,40.708302,-74.004754,1,1,1502,1077220,1000750048,Battery Park City-Lower Manhattan                                          
The Hook & Ladder Bar,133 John Street,2nd Floor,New York,NY,10038,75-9,Nightlife,N-Bar,MANHATTAN,40.707078,-74.00519,1,1,1502,1001165,1000750009,Battery Park City-Lower Manhattan                                          
Fulton Chef,64 Fulton Street,2nd Floor,New York,NY,10038,76-1,Casual Eating & Takeout,F-Chinese,MANHATTAN,40.708769,-74.005136,1,1,1502,1001176,1000760001,Battery Park City-Lower Manhattan                                          
Dunkin Donuts,64 Fulton Street,,New York,NY,10038,76-1,Casual Eating & Takeout,F-Fast Food,MANHATTAN,40.708769,-74.005136,1,1,1502,1001176,1000760001,Battery Park City-Lower Manhattan                                          
Ruben's Empanadas,64 Fulton Street,,New York,NY,10038,76-1,Casual Eating & Takeout,F-Argentinian,MANHATTAN,40.708769,-74.005136,1,1,1502,1001176,1000760001,Battery Park City-Lower Manhattan                                          
L&L Hawaiian Barbeque,64 Fulton Street,,New York,NY,10038,76-1,Casual Eating & Takeout,F-American,MANHATTAN,40.708769,-74.005136,1,1,1502,1001176,1000760001,Battery Park City-Lower Manhattan                                          
Jubilee Market Place,99 John Street,,New York,NY,10038,76-11,Shopping,F-Supermarket,MANHATTAN,40.708006,-74.006164,1,1,1502,1087867,1000767502,Battery Park City-Lower Manhattan                                          
Duane Reade,99 John Street,,New York,NY,10038,76-11,Shopping,S-Drugstores,MANHATTAN,40.708006,-74.006164,1,1,1502,1087867,1000767502,Battery Park City-Lower Manhattan                                          
The Country Kebab,76 Fulton Street,,New York,NY,10038,76-28,Casual Eating & Takeout,F-Middle Eastern,MANHATTAN,40.709032,-74.005439,1,1,1502,1001184,1000760028,Battery Park City-Lower Manhattan                                          
Barua Gift Shop,70 Fulton Street,,New York,NY,10038,76-28,Shopping,"S-Gifts, Cards & Stationery",MANHATTAN,40.708939,-74.005306,1,1,1502,1001184,1000760028,Battery Park City-Lower Manhattan                                          
Fulton Supply Corp.,74 Fulton Street,,New York,NY,10038,76-28,Personal and Professional Services,P-Hardware & Locksmiths,MANHATTAN,40.708999,-74.005396,1,1,1502,1001184,1000760028,Battery Park City-Lower Manhattan                                          
Lisa's Pizza,76 Fulton Street,,New York,NY,10038,76-28,Casual Eating & Takeout,F-Pizza,MANHATTAN,40.709032,-74.005439,1,1,1502,1001184,1000760028,Battery Park City-Lower Manhattan                                          
Kosher Luncheonette,56 Fulton Street,,New York,NY,10038,76-6,Casual Eating & Takeout,F-Kosher,MANHATTAN,40.7085,-74.004916,1,1,1502,1001177,1000760006,Battery Park City-Lower Manhattan                                          
Shoe Repair and Shine,29 Cliff Street,,New York,NY,10038,76-6,Personal and Professional Services,P-Shoe Repair/Shine,MANHATTAN,40.708302,-74.005057,1,1,1502,1001177,1000760006,Battery Park City-Lower Manhattan                                          
Gift Shop,56 Fulton Street,,New York,NY,10038,76-6,Shopping,S-Accessories,MANHATTAN,40.7085,-74.004916,1,1,1502,1001177,1000760006,Battery Park City-Lower Manhattan                                          
HK News,56 Fulton Street,,New York,NY,10038,76-6,Personal and Professional Services,P-Newsstands,MANHATTAN,40.7085,-74.004916,1,1,1502,1001177,1000760006,Battery Park City-Lower Manhattan                                          
Eden Flowers,56 Fulton Street,,New York,NY,10038,76-6,Shopping,S-Florist,MANHATTAN,40.7085,-74.004916,1,1,1502,1001177,1000760006,Battery Park City-Lower Manhattan                                          
New Field Yoga,27 Cliff Street,3rd Floor,New York,NY,10038,76-7,Personal and Professional Services,P-Athletic Clubs/Fitness,MANHATTAN,40.70828,-74.005115,1,1,1502,1001178,1000760007,Battery Park City-Lower Manhattan                                          
Cliff Street Cleaners,15 Cliff Street,,New York,NY,10038,76-9,Personal and Professional Services,P-Dry Cleaning,MANHATTAN,40.708143,-74.00545,1,1,1502,1085931,1000767501,Battery Park City-Lower Manhattan                                          
Corbet & Conley Caterers,15 Cliff Street,,New York,NY,10038,76-9,Casual Eating & Takeout,F-Catering,MANHATTAN,40.708143,-74.00545,1,1,1502,1085931,1000767501,Battery Park City-Lower Manhattan                                          
Martin Busch Jewelers,85 John Street,,New York,NY,10038,77-1,Shopping,S-Jeweler,MANHATTAN,40.708368,-74.00673,1,1,1502,1001185,1000770001,Battery Park City-Lower Manhattan                                          
"4G Data Systems, Inc.",85 John Street,,New York,NY,10038,77-1,Shopping,S-Computers & Electronics,MANHATTAN,40.708368,-74.00673,1,1,1502,1001185,1000770001,Battery Park City-Lower Manhattan                                          
Yip's Oriental Express,136 William Street,,New York,NY,10038,77-1001,Casual Eating & Takeout,F-Chinese,MANHATTAN,40.70934,-74.006637,1,1,1502,1001188,1000770018,Battery Park City-Lower Manhattan                                          
Duane Reade,130 William Street,,New York,NY,10038,77-15,Shopping,S-Drugstores,MANHATTAN,40.709238,-74.006738,1,1,1502,1001187,1000770015,Battery Park City-Lower Manhattan                                          
Texas Rotisserie & Grill,94 Fulton Street,,New York,NY,10038,77-21,Casual Eating & Takeout,F-American,MANHATTAN,40.709408,-74.006161,1,1,1502,1079210,1000770015,Battery Park City-Lower Manhattan                                          
Liam's Pub,90 Fulton Street,,New York,NY,10038,77-23,Full Service Dining,F-Irish Pub,MANHATTAN,40.709337,-74.006016,1,1,1502,1001191,1000770015,Battery Park City-Lower Manhattan                                          
My Optician,88 Fulton Street,,New York,NY,10038,77-24,Shopping,S-Glasses & Sunglasses,MANHATTAN,40.709299,-74.005944,1,1,1502,1077403,1000770024,Battery Park City-Lower Manhattan                                          
Goodies Restauraunt,88 Fulton Street,Upper Floor,New York,NY,10038,77-24,Casual Eating & Takeout,F-Chinese,MANHATTAN,40.709299,-74.005944,1,1,1502,1077403,1000770024,Battery Park City-Lower Manhattan                                          
Spa 88,88 Fulton Street,Lower Level,New York,NY,10038,77-24,Personal and Professional Services,P-Spa,MANHATTAN,40.709299,-74.005944,1,1,1502,1077403,1000770024,Battery Park City-Lower Manhattan                                          
Taslima Newsstand,88 Fulton Street,,New York,NY,10038,77-24,Personal and Professional Services,P-Newsstands,MANHATTAN,40.709299,-74.005944,1,1,1502,1077403,1000770024,Battery Park City-Lower Manhattan                                          
Fulton Hair Cutter,88 Fulton Street,Lower Level,New York,NY,10038,77-24,Personal and Professional Services,P-Hair Salon & Barber Shop,MANHATTAN,40.709299,-74.005944,1,1,1502,1077403,1000770024,Battery Park City-Lower Manhattan                                          
Bennie's Thai Restaurant,88 Fulton Street,Lower Level,New York,NY,10038,77-24,Casual Eating & Takeout,F-Thai,MANHATTAN,40.709299,-74.005944,1,1,1502,1077403,1000770024,Battery Park City-Lower Manhattan                                          
Rafael's Dry Cleaners,88 Fulton Street,,New York,NY,10038,77-24,Personal and Professional Services,P-Dry Cleaning,MANHATTAN,40.709299,-74.005944,1,1,1502,1077403,1000770024,Battery Park City-Lower Manhattan                                          
Tandoor Palace,88 Fulton Street,Upper Floor,New York,NY,10038,77-24,Casual Eating & Takeout,F-Indian,MANHATTAN,40.709299,-74.005944,1,1,1502,1077403,1000770024,Battery Park City-Lower Manhattan                                          
Seattle Cafe & Grill,110 William Street,,New York,NY,10038,77-8,Casual Eating & Takeout,F-Deli,MANHATTAN,40.708791,-74.007189,1,1,1502,1001186,1000770008,Battery Park City-Lower Manhattan                                          
Kinko's,110 William Street,,New York,NY,10038,77-8,Personal and Professional Services,P-Copy and Printing Services,MANHATTAN,40.708791,-74.007189,1,1,1502,1001186,1000770008,Battery Park City-Lower Manhattan                                          
HSBC,110 William Street,,New York,NY,10038,77-8,Personal and Professional Services,P-Banks and Check Cashing,MANHATTAN,40.708791,-74.007189,1,1,1502,1001186,1000770008,Battery Park City-Lower Manhattan                                          
Gem Story,110 Fulton Street,,New York,NY,10038,78-19,Shopping,S-Accessories,MANHATTAN,40.709817,-74.006965,1,1,1502,1088478,1000787510,Battery Park City-Lower Manhattan                                          
Fulton Wine and Liquor,110 Fulton Street,,New York,NY,10038,78-19,Shopping,S-Liquor Store,MANHATTAN,40.709817,-74.006965,1,1,1502,1088478,1000787510,Battery Park City-Lower Manhattan                                          
Zoom Wireless,102 Fulton Street,,New York,NY,10038,78-21,Shopping,S-Cellular Phones,MANHATTAN,40.709642,-74.006619,1,1,1502,1001196,1000787506,Battery Park City-Lower Manhattan                                          
Zibetto Espresso Bar,102 Fulton Street,,New York,NY,10038,78-21,Casual Eating & Takeout,F-Coffeehouse,MANHATTAN,40.709642,-74.006619,1,1,1502,1001196,1000787506,Battery Park City-Lower Manhattan                                          
Patuca,41 John Street,,New York,NY,10038,78-31,Casual Eating & Takeout,F-Deli,MANHATTAN,40.709318,-74.008108,1,1,1502,1075701,1000787502,Battery Park City-Lower Manhattan                                          
Bronte Men's Wear,41 John Street,,New York,NY,10038,78-31,Shopping,S-Apparel: Men's,MANHATTAN,40.709318,-74.008108,1,1,1502,1075701,1000787502,Battery Park City-Lower Manhattan                                          
Samuel's Hats,74 Nassau Street,,New York,NY,10038,78-35,Shopping,S-Accessories,MANHATTAN,40.709677,-74.00826,1,1,1502,1001200,1000787505,Battery Park City-Lower Manhattan                                          
Zaitzeff,72 Nassau Street,,New York,NY,10038,78-35,Casual Eating & Takeout,F-American,MANHATTAN,40.70963,-74.00831,1,1,1502,1001200,1000787505,Battery Park City-Lower Manhattan                                          
Eyebrow Zone Salon,37 John Street,,New York,NY,10038,78-35,Personal and Professional Services,P-Eyebrows,MANHATTAN,40.709394,-74.008213,1,1,1502,1001200,1000787505,Battery Park City-Lower Manhattan                                          
Ruben's Empanadas,76 Nassau Street,,New York,NY,10038,78-35,Casual Eating & Takeout,F-Argentinian,MANHATTAN,40.709727,-74.008213,1,1,1502,1001200,1000787505,Battery Park City-Lower Manhattan                                          
37 Gifts,37 John Street,,New York,NY,10038,78-35,Shopping,S-Accessories,MANHATTAN,40.709394,-74.008213,1,1,1502,1001200,1000787505,Battery Park City-Lower Manhattan                                          
T.O.C.,76 Nassau Street,,New York,NY,10038,78-35,Shopping,S-Apparel: Women's,MANHATTAN,40.709727,-74.008213,1,1,1502,1001200,1000787505,Battery Park City-Lower Manhattan                                          
Manhattan Fortune Jewelry,39 John Street,,New York,NY,10038,78-35,Shopping,S-Jeweler,MANHATTAN,40.709356,-74.008159,1,1,1502,1001200,1000787505,Battery Park City-Lower Manhattan                                          
Parklane Apparel,76 Nassau Street,,New York,NY,10038,78-35,Shopping,S-Apparel: Women's,MANHATTAN,40.709727,-74.008213,1,1,1502,1001200,1000787505,Battery Park City-Lower Manhattan                                          
De Janeiro,78 Nassau Street,,New York,NY,10038,78-35,Shopping,S-Apparel: Women's,MANHATTAN,40.709776,-74.008166,1,1,1502,1001200,1000787505,Battery Park City-Lower Manhattan                                          
Ralph's Discount City,72 Nassau Street,Lower Level,New York,NY,10038,78-35,Shopping,S-Variety & Discount Stores,MANHATTAN,40.70963,-74.00831,1,1,1502,1001200,1000787505,Battery Park City-Lower Manhattan                                          
Dor L' Dor,80 Nassau Street,,New York,NY,10038,78-38,Shopping,S-Apparel: Women's,MANHATTAN,40.709823,-74.008119,1,1,1502,1001201,1000787503,Battery Park City-Lower Manhattan                                          
Golden Krust Patties,80 Nassau Street,Ground Level,New York,NY,10038,78-38,Casual Eating & Takeout,F-Caribbean,MANHATTAN,40.709823,-74.008119,1,1,1502,1001201,1000787503,Battery Park City-Lower Manhattan                                          
T-Mobile,80 Nassau Street,Ground Level,New York,NY,10038,78-38,Shopping,S-Cellular Phones,MANHATTAN,40.709823,-74.008119,1,1,1502,1001201,1000787503,Battery Park City-Lower Manhattan                                          
"Know Style, Inc.",80 Nassau Street,Ground Level,New York,NY,10038,78-38,Shopping,S-Apparel: Women's,MANHATTAN,40.709823,-74.008119,1,1,1502,1001201,1000787503,Battery Park City-Lower Manhattan                                          
Soma By Nature,123 William Street,,New York,NY,10038,78-4,Casual Eating & Takeout,F-Japanese,MANHATTAN,40.709112,-74.006889,1,1,1502,1079063,1000780004,Battery Park City-Lower Manhattan                                          
Liberty Travel,86 Nassau Street,,New York,NY,10038,78-40,Personal and Professional Services,P-Travel Agency,MANHATTAN,40.709968,-74.007979,1,1,1502,1001202,1000780040,Battery Park City-Lower Manhattan                                          
Nassau Electronics,88 Nassau Street,,New York,NY,10038,78-41,Shopping,S-Computers & Electronics,MANHATTAN,40.710015,-74.007932,1,1,1502,1001204,1000780042,Battery Park City-Lower Manhattan                                          
Lilly's Boutique,86A Nassau Street,,New York,NY,10038,78-41,Shopping,S-Apparel: Women's,MANHATTAN,40.709968,-74.007979,1,1,1502,,,Battery Park City-Lower Manhattan                                          
Why Pay More?,124 Fulton Street,Lower Level,New York,NY,10038,78-43,Personal and Professional Services,P-Newsstands,MANHATTAN,40.71016,-74.007647,1,1,1502,1001205,1000780043,Battery Park City-Lower Manhattan                                          
Time Piece City,124 Fulton Street,,New York,NY,10038,78-43,Shopping,S-Jeweler,MANHATTAN,40.71016,-74.007647,1,1,1502,1001205,1000780043,Battery Park City-Lower Manhattan                                          
Premier Lock & Security,124 Fulton Street,Lower Level,New York,NY,10038,78-43,Personal and Professional Services,P-Hardware & Locksmiths,MANHATTAN,40.71016,-74.007647,1,1,1502,1001205,1000780043,Battery Park City-Lower Manhattan                                          
Best Color Photo,90 Nassau Street,,New York,NY,10038,78-43,Personal and Professional Services,P-Film Developing,MANHATTAN,40.710064,-74.007885,1,1,1502,1001205,1000780043,Battery Park City-Lower Manhattan                                          
Terrace Fish & Chip,124 Fulton Street,,New York,NY,10038,78-43,Casual Eating & Takeout,F-Seafood,MANHATTAN,40.71016,-74.007647,1,1,1502,1001205,1000780043,Battery Park City-Lower Manhattan                                          
S & O Gift Shop,124 Fulton Street,,New York,NY,10038,78-43,Shopping,"S-Gifts, Cards & Stationery",MANHATTAN,40.71016,-74.007647,1,1,1502,1001205,1000780043,Battery Park City-Lower Manhattan                                          
Wow Style Fashions,122 Fulton Street,,New York,NY,10038,78-44,Shopping,S-Apparel: Women's,MANHATTAN,40.710122,-74.007564,1,1,1502,1001206,1000780044,Battery Park City-Lower Manhattan                                          
Foot Mart,120 Fulton Street,,New York,NY,,78-45,Shopping,S-Shoes: Men's & Women's,,,,,,,,,
Subway,118 Fulton Street,,New York,NY,10038,78-46,Casual Eating & Takeout,F-Fast Food,MANHATTAN,40.71004,-74.007405,1,1,1502,1000000,1000780047,Battery Park City-Lower Manhattan                                          
Carvel,118 Fulton Street,,New York,NY,10038,78-46,Casual Eating & Takeout,F-Ice Cream,MANHATTAN,40.71004,-74.007405,1,1,1502,1000000,1000780047,Battery Park City-Lower Manhattan                                          
The UPS Store,118 Fulton Street,,New York,NY,10038,78-46,Personal and Professional Services,P-Packaging/Shipping,MANHATTAN,40.71004,-74.007405,1,1,1502,1000000,1000780047,Battery Park City-Lower Manhattan                                          
Stylz,116 Fulton Street,,New York,NY,10038,78-47,Shopping,S-Apparel: Men's & Women's,MANHATTAN,40.709998,-74.007322,1,1,1502,1000000,1000780047,Battery Park City-Lower Manhattan                                          
Radio Shack,114 Fulton Street,,New York,NY,10038,78-47,Shopping,S-Computers & Electronics,MANHATTAN,40.709957,-74.007243,1,1,1502,1000000,1000780047,Battery Park City-Lower Manhattan                                          
Starbucks Coffee,130 Fulton Street,,New York,NY,,79-1,Casual Eating & Takeout,F-Coffeehouse,,,,,,,,,
Bank of America ATM,130 Fulton Street,,New York,NY,10038,79-1,Personal and Professional Services,P-Banks and Check Cashing,MANHATTAN,40.710372,-74.008062,1,1,1502,1087245,1000797502,Battery Park City-Lower Manhattan                                          
Nassau Fulton Optical,87 Nassau Street,,New York,NY,10038,79-1,Shopping,S-Glasses & Sunglasses,MANHATTAN,40.710026,-74.00795,1,1,1502,1087245,1000797502,Battery Park City-Lower Manhattan                                          
General Nutrition Center,134-136 Fulton Street,,New York,NY,10038,79-1,Shopping,S-Nutrition & Health,MANHATTAN,40.710432,-74.008177,1,1,1502,1087245,1000797502,Battery Park City-Lower Manhattan                                          
Au Hair,29 John Street,Lower Level,New York,NY,10038,79-10,Personal and Professional Services,P-Hair Salon & Barber Shop,MANHATTAN,40.709694,-74.008631,1,1,1502,1001215,1000797503,Battery Park City-Lower Manhattan                                          
Duane Reade,17 John Street,,New York,NY,10038,79-10,Shopping,S-Drugstores,MANHATTAN,40.709916,-74.008949,1,1,1502,1001216,1000790010,Battery Park City-Lower Manhattan                                          
Uma Newsstand,17 John Street,,New York,NY,10038,79-10,Personal and Professional Services,P-Newsstands,MANHATTAN,40.709916,-74.008949,1,1,1502,1001216,1000790010,Battery Park City-Lower Manhattan                                          
John Street Bar & Grill,17 John Street,Lower Level,New York,NY,10038,79-10,Nightlife,N-Bar,MANHATTAN,40.709916,-74.008949,1,1,1502,1001216,1000790010,Battery Park City-Lower Manhattan                                          
Les Halles Downtown,15 John Street,,New York,NY,10038,79-14,Full Service Dining,F-French,MANHATTAN,40.709954,-74.008999,1,1,1502,1001217,1000790014,Battery Park City-Lower Manhattan                                          
Wendy's,85 Nassau Street,,New York,NY,10038,79-2,Casual Eating & Takeout,F-Fast Food,MANHATTAN,40.709976,-74.007997,1,1,1502,1001212,1000790002,Battery Park City-Lower Manhattan                                          
K.C. Barber Shop,144 Fulton Street,,New York,NY,10038,79-25,Personal and Professional Services,P-Hair Salon & Barber Shop,MANHATTAN,40.710577,-74.008466,1,1,1502,1001223,1000790025,Battery Park City-Lower Manhattan                                          
Lot-Less Closeouts,95 Fulton Street,,New York,NY,10038,93-1,Shopping,S-Variety & Discount Stores,MANHATTAN,40.70943,-74.006161,1,1,1501,1001280,1000930001,Battery Park City-Lower Manhattan                                          
Wagner Tailoring & Alterations-Booth,144 Fulton Street,2nd Floor,New York,NY,10038,79-25,Personal and Professional Services,P-Tailoring,MANHATTAN,40.710577,-74.008466,1,1,1502,1001223,1000790025,Battery Park City-Lower Manhattan                                          
The Essences Beauty Salon,144 Fulton Street,3rd Floor,New York,NY,10038,79-25,Personal and Professional Services,P-Hair Salon & Barber Shop,MANHATTAN,40.710577,-74.008466,1,1,1502,1001223,1000790025,Battery Park City-Lower Manhattan                                          
Nail & Wax,144 Fulton Street,,New York,NY,10038,79-25,Personal and Professional Services,P-Nail Salon,MANHATTAN,40.710577,-74.008466,1,1,1502,1001223,1000790025,Battery Park City-Lower Manhattan                                          
Baba Gift,144 Fulton Street,Booth 1,New York,NY,10038,79-25,Shopping,S-Variety & Discount Stores,MANHATTAN,40.710577,-74.008466,1,1,1502,1001223,1000790025,Battery Park City-Lower Manhattan                                          
Cafe Tomato,142 Fulton Street,,New York,NY,10038,79-26,Casual Eating & Takeout,F-Deli,MANHATTAN,40.710547,-74.008408,1,1,1502,1001224,1000790026,Battery Park City-Lower Manhattan                                          
Caruso's Pizza and Pasta,140 Fulton Street,,New York,NY,10038,79-27,Casual Eating & Takeout,F-Pizza,MANHATTAN,40.71052,-74.00835,1,1,1502,1001225,1000790027,Battery Park City-Lower Manhattan                                          
Solution Beauty Source,138 Fulton Street,,New York,NY,10038,79-28,Shopping,S-Beauty & Fragrances,MANHATTAN,40.71049,-74.008293,1,1,1502,1001226,1000797501,Battery Park City-Lower Manhattan                                          
New York & Co.,83 Nassau Street,,New York,NY,10038,79-3,Shopping,S-Apparel: Women's,MANHATTAN,40.70993,-74.008044,1,1,1502,1001213,1000790003,Battery Park City-Lower Manhattan                                          
De Janeiro Too,75 Nassau Street,,New York,NY,10038,79-4,Shopping,S-Apparel: Women's,MANHATTAN,40.709738,-74.008231,1,1,1502,1001214,1000790006,Battery Park City-Lower Manhattan                                          
Eye To Eye Vision Center,79 Nassau Street,,New York,NY,10038,79-4,Shopping,S-Glasses & Sunglasses,MANHATTAN,40.709834,-74.008137,1,1,1502,1078967,1000790004,Battery Park City-Lower Manhattan                                          
Spring Thyme Wellness Spa,75 Nassau Street,,New York,NY,10038,79-4,Personal and Professional Services,P-Spa,MANHATTAN,40.709738,-74.008231,1,1,1502,1001214,1000790006,Battery Park City-Lower Manhattan                                          
La Mode Cleaners,75 Nassau Street,,New York,NY,10038,79-4,Personal and Professional Services,P-Dry Cleaning,MANHATTAN,40.709738,-74.008231,1,1,1502,1001214,1000790006,Battery Park City-Lower Manhattan                                          
The Diner,75 Nassau Street,,New York,NY,10038,79-6,Full Service Dining,F-Diner,MANHATTAN,40.709738,-74.008231,1,1,1502,1001214,1000790006,Battery Park City-Lower Manhattan                                          
Nassau Jewelry,75 Nassau Street,,New York,NY,10038,79-6,Shopping,S-Jeweler,MANHATTAN,40.709738,-74.008231,1,1,1502,1001214,1000790006,Battery Park City-Lower Manhattan                                          
Max Cleaners,29 John Street,,New York,NY,10038,79-7503,Personal and Professional Services,P-Dry Cleaning,MANHATTAN,40.709694,-74.008631,1,1,1502,1001215,1000797503,Battery Park City-Lower Manhattan                                          
Evelyn's Chocolates,29 John Street,,New York,NY,10038,79-7503,Shopping,S-Candy & Chocolate,MANHATTAN,40.709694,-74.008631,1,1,1502,1001215,1000797503,Battery Park City-Lower Manhattan                                          
Alex Tailor Shop,29 John Street,,New York,NY,10038,79-7503,Personal and Professional Services,P-Tailoring,MANHATTAN,40.709694,-74.008631,1,1,1502,1001215,1000797503,Battery Park City-Lower Manhattan                                          
My Convenience,29 John Street,,New York,NY,10038,79-7503,Personal and Professional Services,P-Newsstands,MANHATTAN,40.709694,-74.008631,1,1,1502,1001215,1000797503,Battery Park City-Lower Manhattan                                          
Yung Nail Salon,29 John Street,Lower Level,New York,NY,10038,79-8,Personal and Professional Services,P-Nail Salon,MANHATTAN,40.709694,-74.008631,1,1,1502,1001215,1000797503,Battery Park City-Lower Manhattan                                          
Blimpie,69 Nassau Street,,New York,NY,10038,79-8,Casual Eating & Takeout,F-Fast Food,MANHATTAN,40.709463,-74.008498,1,1,1502,1001106,1000657501,Battery Park City-Lower Manhattan                                          
Energy Kitchen,71 Nassau Street,,New York,NY,10038,79-8,Casual Eating & Takeout,F-Health,MANHATTAN,40.709639,-74.008325,1,1,1502,1001215,1000797503,Battery Park City-Lower Manhattan                                          
Starbucks Coffee,195 Broadway,,New York,NY,10007,80-1,Casual Eating & Takeout,F-Coffeehouse,MANHATTAN,40.710536,-74.009378,1,1,13,1001227,1000800001,Battery Park City-Lower Manhattan                                          
Liquid Assets at the Millenium Hilton Hotel,55 Church Street,,New York,NY,10007,80-4,Nightlife,N-Bar,MANHATTAN,40.711453,-74.010504,1,1,13,1075702,1000800004,Battery Park City-Lower Manhattan                                          
US Post Office-Church Street Station,90 Church Street,,New York,NY,10007,86-1,Community Resources,C-Post Office,MANHATTAN,40.712586,-74.009775,1,1,21,1001230,1000860001,SoHo-TriBeCa-Civic Center-Little Italy                                     
New York Sports Club,217 Broadway,,New York,NY,10007,88-1,Personal and Professional Services,P-Athletic Clubs/Fitness,MANHATTAN,40.71156,-74.008469,1,1,21,1001232,1000880001,SoHo-TriBeCa-Civic Center-Little Italy                                     
AT&T,217 Broadway,,New York,NY,10007,88-1,Shopping,S-Cellular Phones,MANHATTAN,40.71156,-74.008469,1,1,21,1001232,1000880001,SoHo-TriBeCa-Civic Center-Little Italy                                     
Staples,217 Broadway,,New York,NY,10007,88-1,Shopping,S-Office Supplies & Equipment,MANHATTAN,40.71156,-74.008469,1,1,21,1001232,1000880001,SoHo-TriBeCa-Civic Center-Little Italy                                     
Travelex Currency Services Inc.,28 Vesey Street,,New York,NY,10007,88-10,Visitor Services,V-Currency Exchange,MANHATTAN,40.71195,-74.009804,1,1,21,1001237,1000880010,SoHo-TriBeCa-Civic Center-Little Italy                                     
Jean Louis David Salon,30 Vesey Street,,New York,NY,10007,88-10,Personal and Professional Services,P-Hair Salon & Barber Shop,MANHATTAN,40.711977,-74.009865,1,1,21,1001237,1000880010,SoHo-TriBeCa-Civic Center-Little Italy                                     
Renaissance Fine Jewelers II,225 Broadway,,New York,NY,10007,88-18,Shopping,S-Jeweler,MANHATTAN,40.71187,-74.008217,1,1,21,1001241,1000880018,SoHo-TriBeCa-Civic Center-Little Italy                                     
PrintFacility.com,225 Broadway,Suite 300,New York,NY,10007,88-18,Personal and Professional Services,P-Copy and Printing Services,MANHATTAN,40.71187,-74.008217,1,1,21,1001241,1000880018,SoHo-TriBeCa-Civic Center-Little Italy                                     
Quality Duplicating Services,225 Broadway,,New York,NY,10007,88-18,Personal and Professional Services,P-Copy and Printing Services,MANHATTAN,40.71187,-74.008217,1,1,21,1001241,1000880018,SoHo-TriBeCa-Civic Center-Little Italy                                     
Illusions of Broadway,225 Broadway,,New York,NY,10007,88-18,Shopping,S-Apparel: Women's,MANHATTAN,40.71187,-74.008217,1,1,21,1001241,1000880018,SoHo-TriBeCa-Civic Center-Little Italy                                     
FedEx Office,4 Barclay Street,,New York,NY,10007,88-18,Personal and Professional Services,P-Packaging/Shipping,MANHATTAN,40.712123,-74.008397,1,1,21,1001241,1000880018,SoHo-TriBeCa-Civic Center-Little Italy                                     
Continental Shoe Repair,225 Broadway,,New York,NY,10007,88-18,Personal and Professional Services,P-Shoe Repair/Shine,MANHATTAN,40.71187,-74.008217,1,1,21,1001241,1000880018,SoHo-TriBeCa-Civic Center-Little Italy                                     
Oliva Gourmet,225 Broadway,,New York,NY,10007,88-18,Casual Eating & Takeout,F-Deli,MANHATTAN,40.71187,-74.008217,1,1,21,1001241,1000880018,SoHo-TriBeCa-Civic Center-Little Italy                                     
Naturally Delicious,6 Barclay Street,,New York,NY,10007,88-18,Casual Eating & Takeout,F-Health,MANHATTAN,40.712147,-74.008451,1,1,21,1087947,1000880014,SoHo-TriBeCa-Civic Center-Little Italy                                     
Cohen's Fashion Optical,225 Broadway,,New York,NY,10007,88-18,Shopping,S-Glasses & Sunglasses,MANHATTAN,40.71187,-74.008217,1,1,21,1001241,1000880018,SoHo-TriBeCa-Civic Center-Little Italy                                     
Smoke Shop,20 Vesey Street,,New York,NY,10007,88-5,Shopping,S-Cigars,MANHATTAN,40.711843,-74.009562,1,1,21,1001235,1000880005,SoHo-TriBeCa-Civic Center-Little Italy                                     
Stage Door Deli,26 Vesey Street,,New York,NY,10007,88-8,Casual Eating & Takeout,F-Deli,MANHATTAN,40.711922,-74.009743,1,1,21,1001236,1000880008,SoHo-TriBeCa-Civic Center-Little Italy                                     
The Pilatium,139 Fulton Street,Suite 309,New York,NY,10038,89-1,Personal and Professional Services,P-Athletic Clubs/Fitness,MANHATTAN,40.710385,-74.008051,1,1,1501,1001242,1000890001,Battery Park City-Lower Manhattan                                          
Tansey Tang Cultured Pearl Jewelry and Asian Gifts,99A Nassau Street,,New York,NY,10038,89-1,Shopping,S-Jeweler,,,,,,,,,
Fine Leather Collection,99 Nassau Street,,New York,NY,10038,89-1,Shopping,S-Leather & Luggage,MANHATTAN,40.710531,-74.007441,1,1,1501,1001242,1000890001,Battery Park City-Lower Manhattan                                          
Perfect Eyes Thread Salon,97 Nassau Street,,New York,NY,10038,89-1,Personal and Professional Services,P-Eyebrows,MANHATTAN,40.710448,-74.007524,1,1,1501,1001242,1000890001,Battery Park City-Lower Manhattan                                          
Designer Promise,93 Nassau Street,,New York,NY,10038,89-1,Shopping,S-Apparel: Women's,MANHATTAN,40.710278,-74.007697,1,1,1501,1001242,1000890001,Battery Park City-Lower Manhattan                                          
Chase Bank,214 Broadway,,New York,NY,10038,89-1,Personal and Professional Services,P-Banks and Check Cashing,MANHATTAN,40.71103,-74.008917,1,1,1501,1001245,1000890012,Battery Park City-Lower Manhattan                                          
Majestic Beauty Salon,30 Ann Street,,New York,NY,10038,89-1,Personal and Professional Services,P-Hair Salon & Barber Shop,MANHATTAN,40.710687,-74.007575,1,1,1501,1001242,1000890001,Battery Park City-Lower Manhattan                                          
Solomon Cleaners,30 Ann Street,,New York,NY,10038,89-1,Personal and Professional Services,P-Dry Cleaning,MANHATTAN,40.710687,-74.007575,1,1,1501,1001242,1000890001,Battery Park City-Lower Manhattan                                          
Uriel Shoe Repair,30 Ann Street,,New York,NY,10038,89-1,Personal and Professional Services,P-Shoe Repair/Shine,MANHATTAN,40.710687,-74.007575,1,1,1501,1001242,1000890001,Battery Park City-Lower Manhattan                                          
metro PCS,99 Nassau Street,,New York,NY,10038,89-1,Shopping,S-Cellular Phones,MANHATTAN,40.710531,-74.007441,1,1,1501,1001242,1000890001,Battery Park City-Lower Manhattan                                          
Fusion Wireless,99 Nassau Street,,New York,NY,10038,89-1,Shopping,S-Cellular Phones,MANHATTAN,40.710531,-74.007441,1,1,1501,1001242,1000890001,Battery Park City-Lower Manhattan                                          
Dunkin Donuts,139 Fulton Street,,New York,NY,10038,89-1,Casual Eating & Takeout,F-Fast Food,MANHATTAN,40.710385,-74.008051,1,1,1501,1001242,1000890001,Battery Park City-Lower Manhattan                                          
Duane Reade,147 Fulton Street,,New York,NY,10038,89-12,Shopping,S-Drugstores,MANHATTAN,40.710503,-74.008282,1,1,1501,1001245,1000890012,Battery Park City-Lower Manhattan                                          
Au Bon Pain,222 Broadway,,New York,NY,10007,89-12,Casual Eating & Takeout,F-Cafe & Eatery,MANHATTAN,40.711313,-74.008661,1,1,1501,1001245,1000890012,Battery Park City-Lower Manhattan                                          
"Eyebrow Threading Salon, Inc.",141 Fulton Street,3rd Floor,New York,NY,10038,89-2,Personal and Professional Services,P-Eyebrows,MANHATTAN,40.710415,-74.008109,1,1,1501,1001243,1000890002,Battery Park City-Lower Manhattan                                          
Sophie's Cuban Cuisine,141 Fulton Street,,New York,NY,10038,89-2,Casual Eating & Takeout,F-Caribbean,MANHATTAN,40.710415,-74.008109,1,1,1501,1001243,1000890002,Battery Park City-Lower Manhattan                                          
Mr. Closeout,145 Fulton Street,,New York,NY,10038,89-3,Shopping,S-Beauty & Fragrances,MANHATTAN,40.710473,-74.008224,1,1,1501,1001244,1000890003,Battery Park City-Lower Manhattan                                          
Popeye's Chicken & Biscuits,143 Fulton Street,,New York,NY,10038,89-3,Casual Eating & Takeout,F-Fast Food,MANHATTAN,40.710446,-74.008166,1,1,1501,1001244,1000890003,Battery Park City-Lower Manhattan                                          
Lucille Roberts,143 Fulton Street,2nd Floor,New York,NY,10038,89-3,Personal and Professional Services,P-Athletic Clubs/Fitness,MANHATTAN,40.710446,-74.008166,1,1,1501,1001244,1000890003,Battery Park City-Lower Manhattan                                          
Weinstein & Holtzman Hardware,29 Park Row,,New York,NY,10038,90-10,Personal and Professional Services,P-Hardware & Locksmiths,MANHATTAN,40.711673,-74.007232,1,1,1501,1001251,1000900007,Battery Park City-Lower Manhattan                                          
J&R Music and Computer World,31 Park Row,,New York,NY,10038,90-11,Shopping,S-Computers & Electronics,MANHATTAN,40.711695,-74.007138,1,1,1501,1001252,1000900007,Battery Park City-Lower Manhattan                                          
GS Smokers Inc.,1 Beekman Street,,New York,NY,10038,90-13,Shopping,S-Cigars,MANHATTAN,40.711588,-74.006868,1,1,1501,1001254,1000900013,Battery Park City-Lower Manhattan                                          
Penguini Men's Wear,105 Nassau Street,,New York,NY,10038,90-18,Shopping,S-Apparel: Men's,MANHATTAN,40.710734,-74.007178,1,1,1501,1001258,1000907502,Battery Park City-Lower Manhattan                                          
H & M Art Gallery of Downtown,105 Nassau Street,,New York,NY,10038,90-20,Shopping,"S-Framing, Posters & Art Supplies",MANHATTAN,40.710734,-74.007178,1,1,1501,1001258,1000907502,Battery Park City-Lower Manhattan                                          
Sandwich House,17 Ann Street,,New York,NY,10038,90-23,Casual Eating & Takeout,F-Italian,MANHATTAN,40.71091,-74.00791,1,1,1501,1001261,1000900023,Battery Park City-Lower Manhattan                                          
Pita Express,15 Ann Street,,New York,NY,10038,90-24,Casual Eating & Takeout,F-Kosher,MANHATTAN,40.710943,-74.007964,1,1,1501,1001262,1000900024,Battery Park City-Lower Manhattan                                          
J&R Office and Computer World,15 Park Row,,New York,NY,10038,90-4,Shopping,S-Office Supplies & Equipment,MANHATTAN,40.711508,-74.007679,1,1,1501,1001249,1000907501,Battery Park City-Lower Manhattan                                          
Duval International Furniture Gallery,111 Fulton Street,,New York,NY,10038,91-1,Shopping,S-Home Furnishings & Decor,MANHATTAN,40.709749,-74.006792,1,1,1501,1001263,1000917502,Battery Park City-Lower Manhattan                                          
Circa NY,111 Fulton Street,,New York,NY,10038,91-1,Casual Eating & Takeout,F-Kosher,MANHATTAN,40.709749,-74.006792,1,1,1501,1001263,1000917502,Battery Park City-Lower Manhattan                                          
Shoetrician Shoe Repair,123 Fulton Street,,New York,NY,10038,91-10,Personal and Professional Services,P-Shoe Repair/Shine,MANHATTAN,40.710001,-74.007286,1,1,1501,1001265,1000910009,Battery Park City-Lower Manhattan                                          
Styling Haircutters,123 Fulton Street,,New York,NY,10038,91-10,Personal and Professional Services,P-Hair Salon & Barber Shop,MANHATTAN,40.710001,-74.007286,1,1,1501,1001265,1000910009,Battery Park City-Lower Manhattan                                          
Papaya,125 Fulton Street,2nd Floor,New York,NY,10038,91-11,Personal and Professional Services,P-Spa,MANHATTAN,40.710037,-74.007358,1,1,1501,1079214,1000910011,Battery Park City-Lower Manhattan                                          
CVS,129 Fulton Street,,New York,NY,10038,91-13,Shopping,S-Drugstores,MANHATTAN,40.710105,-74.007495,1,1,1501,1001267,1000910013,Battery Park City-Lower Manhattan                                          
Strawberry,115 Fulton Street,,New York,NY,10038,91-7,Shopping,S-Apparel: Women's,MANHATTAN,40.709803,-74.0069,1,1,1501,1001263,1000917502,Battery Park City-Lower Manhattan                                          
Bolton's,115 Fulton Street,,New York,NY,10038,91-7,Shopping,S-Apparel: Women's,MANHATTAN,40.709803,-74.0069,1,1,1501,1001263,1000917502,Battery Park City-Lower Manhattan                                          
Chipotle,111 Fulton Street,,New York,NY,10001,91-7502,Casual Eating & Takeout,F-Mexican,MANHATTAN,40.709749,-74.006792,1,1,1501,1001263,1000917502,Battery Park City-Lower Manhattan                                          
Spring Nail Spa N.Y.,119 Fulton Street,,New York,NY,10038,91-8,Personal and Professional Services,P-Nail Salon,MANHATTAN,40.709932,-74.007149,1,1,1501,1001264,1000917501,Battery Park City-Lower Manhattan                                          
American Stamp,121 Fulton Street,2nd Floor,New York,NY,10038,91-9,Shopping,S-Office Supplies & Equipment,MANHATTAN,40.709965,-74.007218,1,1,1501,1079088,1000910009,Battery Park City-Lower Manhattan                                          
Cables & Chips Inc.,121 Fulton Street,4th Floor,New York,NY,10038,91-9,Shopping,S-Computers & Electronics,MANHATTAN,40.709965,-74.007218,1,1,1501,1079088,1000910009,Battery Park City-Lower Manhattan                                          
Nova Offset Corp.,47 Ann Street,,New York,NY,10038,92-17,Personal and Professional Services,P-Copy and Printing Services,MANHATTAN,40.710333,-74.006879,1,1,1501,1001272,1000920017,Battery Park City-Lower Manhattan                                          
Abacus Federal Savings Bank,116 Nassau Street,,New York,NY,10038,92-24,Personal and Professional Services,P-Banks and Check Cashing,MANHATTAN,40.710844,-74.006998,1,1,1501,1079094,1000920024,Battery Park City-Lower Manhattan                                          
Nassau Bar,118 Nassau Street,,New York,NY,10038,92-26,Nightlife,N-Bar,MANHATTAN,40.710871,-74.006958,1,1,1501,1001274,1000920026,Battery Park City-Lower Manhattan                                          
Flight Club NY,120 Nassau Street,,New York,NY,10038,92-27,Shopping,S-Shoes: Men's & Women's,MANHATTAN,40.710899,-74.006918,1,1,1501,1001275,1000920027,Battery Park City-Lower Manhattan                                          
Prato Men's Wear,122 Nassau Street,,New York,NY,10038,92-28,Shopping,S-Apparel: Men's,MANHATTAN,40.710929,-74.006879,1,1,1501,1001276,1000920028,Battery Park City-Lower Manhattan                                          
The Happy Foot Shoe Store,124 Nassau Street,,New York,NY,10038,92-29,Shopping,S-Shoes: Men's & Women's,MANHATTAN,40.710956,-74.006843,1,1,1501,1001277,1000920029,Battery Park City-Lower Manhattan                                          
Downtown Pharmacy,165 William Street,,New York,NY,10038,92-3,Shopping,S-Drugstores,MANHATTAN,40.710185,-74.005829,1,1,1501,1001268,1000920003,Battery Park City-Lower Manhattan                                          
Omega Jewelers,132 Nassau Street,,New York,NY,10038,92-30,Shopping,S-Jeweler,MANHATTAN,40.711072,-74.006684,1,1,1501,1079101,1000920030,Battery Park City-Lower Manhattan                                          
Dunkin Donuts,132 Nassau Street,,New York,NY,10038,92-30,Casual Eating & Takeout,F-Fast Food,MANHATTAN,40.711072,-74.006684,1,1,1501,1079101,1000920030,Battery Park City-Lower Manhattan                                          
The Beekman Pub,15-17 Beekman Street,,New York,NY,10038,92-30,Full Service Dining,F-Restaurant & Bar,MANHATTAN,40.71105,-74.006298,1,1,1501,1079101,1000920030,Battery Park City-Lower Manhattan                                          
Petland Discount,132 Nassau Street,,New York,NY,10038,92-30,Shopping,"S-Pet Stores, Supplies & Services",MANHATTAN,40.711072,-74.006684,1,1,1501,1079101,1000920030,Battery Park City-Lower Manhattan                                          
The Silk Shop,132 Nassau Street,,New York,NY,10038,92-30,Shopping,S-Apparel: Women's,MANHATTAN,40.711072,-74.006684,1,1,1501,1079101,1000920030,Battery Park City-Lower Manhattan                                          
Thriftway Beekman Pharmacy,19 Beekman Street,,New York,NY,10038,92-32,Shopping,S-Drugstores,MANHATTAN,40.710959,-74.006204,1,1,1501,1001278,1000920032,Battery Park City-Lower Manhattan                                          
Cafe Seaport,150 William Street,,New York,NY,10038,93-1,Casual Eating & Takeout,F-Deli,MANHATTAN,40.709729,-74.006255,1,1,1501,1001280,1000930001,Battery Park City-Lower Manhattan                                          
Pride Optical,150 William Street,,New York,NY,10038,93-1,Shopping,S-Glasses & Sunglasses,MANHATTAN,40.709729,-74.006255,1,1,1501,1001280,1000930001,Battery Park City-Lower Manhattan                                          
Rosella's Pizza,164 William Street,,New York,NY,10038,93-24,Casual Eating & Takeout,F-Italian,MANHATTAN,40.710234,-74.005753,1,1,1501,1001282,1000930024,Battery Park City-Lower Manhattan                                          
Dante's Gourmet Foods,166 William Street,,New York,NY,10038,93-25,Casual Eating & Takeout,F-Deli,MANHATTAN,40.710292,-74.005692,1,1,1501,1001283,1000930025,Battery Park City-Lower Manhattan                                          
Panini & Company,168 William Street,,New York,NY,10038,93-26,Casual Eating & Takeout,F-Cafe & Eatery,MANHATTAN,40.710353,-74.005631,1,1,1501,1001284,1000930026,Battery Park City-Lower Manhattan                                          
Battery Gardens,Inside Battery Park,(across from 17 State Street),New York,NY,10004,Battery Park,Full Service Dining,F-Continental,,,,,,,,,
Lower Manhattan Cultural Council,125 Maiden Lane,2nd Floor,New York,NY,10038,,,,MANHATTAN,40.706397,-74.006341,1,1,1502,1087484,1000707501,Battery Park City-Lower Manhattan                                          
Downtown Hair Studio,,,New York,NY,,,,,,,,,,,,,
Seaport Podiatry,122 Fulton Street,3rd Floor,New York,NY,,,,,,,,,,,,,
"Primary Consulting Services, Ltd.",132 Nassau Street,Suite 1320,New York,NY,,,Personal and Professional Services,P-Computer Services,,,,,,,,,
Plaza Cafe And Catering Inc,83 Maiden Lane,Suite 1300,New York,NY,,,,,,,,,,,,,
Tbta Battery Park Garage,70 Greenwich Street,,New York,NY,,,,,,,,,,,,,
Picnick,Battery Park,,New York,NY,10004,,Casual Eating & Takeout,F-American,,,,,,,,,
Lower Manhattan Construction Command Center,1 Liberty Plaza,20th Floor,New York,NY,10006,,,,,,,,,,,,
Candy's Quality Cleaners,57 Murray Street,,New York,NY,10007,,,,MANHATTAN,40.71422,-74.009747,1,1,21,1082029,1001330015,SoHo-TriBeCa-Civic Center-Little Italy                                     
